<?xml version="1.0" encoding="UTF-8"?>
<kml xmlns="http://www.opengis.net/kml/2.2"><Document>
  <name>呉グランプリ コース</name>
  <description>Kure Kart / 呉駅 → 音戸大橋 12155m</description>
  <Style id="course"><LineStyle><color>ff4639e6</color><width>5</width></LineStyle></Style>
  <Style id="viaduct"><LineStyle><color>ffff863a</color><width>6</width></LineStyle></Style>
  <Placemark><name>コース</name><styleUrl>#course</styleUrl><LineString><tessellate>1</tessellate><coordinates>
132.558498,34.245965,0 132.558466,34.24599,0 132.558434,34.246015,0 132.558402,34.246038,0 132.558369,34.246063,0 132.558337,34.246087,0 132.558304,34.246111,0 132.558272,34.246134,0 132.558238,34.246157,0 132.558205,34.246181,0 132.558172,34.246203,0 132.558138,34.246227,0 132.558104,34.246249,0 132.558071,34.246272,0 132.558037,34.246294,0 132.558002,34.246317,0 132.557968,34.246339,0 132.557935,34.246362,0 132.557901,34.246384,0 132.557867,34.246407,0 132.557833,34.24643,0 132.557799,34.246452,0 132.557765,34.246475,0 132.557732,34.246498,0 132.557698,34.246521,0 132.557664,34.246543,0 132.55763,34.246566,0 132.557597,34.246589,0 132.557563,34.246612,0 132.557529,34.246635,0 132.557496,34.246658,0 132.557463,34.246681,0 132.557429,34.246704,0 132.557396,34.246727,0 132.557362,34.24675,0 132.557328,34.246773,0 132.557296,34.246795,0 132.557262,34.246819,0 132.557228,34.246841,0 132.557195,34.246865,0 132.557161,34.246887,0 132.557127,34.246911,0 132.557095,34.246933,0 132.557061,34.246957,0 132.557027,34.246979,0 132.556994,34.247002,0 132.55696,34.247025,0 132.556926,34.247048,0 132.556893,34.24707,0 132.556859,34.247094,0 132.556825,34.247116,0 132.556792,34.247139,0 132.556758,34.247162,0 132.556724,34.247185,0 132.556692,34.247208,0 132.556658,34.247231,0 132.556624,34.247253,0 132.556591,34.247277,0 132.556557,34.247299,0 132.556523,34.247323,0 132.556489,34.247345,0 132.556456,34.247368,0 132.556421,34.247389,0 132.556387,34.247412,0 132.556351,34.247434,0 132.556317,34.247454,0 132.556281,34.247475,0 132.556245,34.247495,0 132.556209,34.247515,0 132.556173,34.247535,0 132.556137,34.247556,0 132.556102,34.247577,0 132.556067,34.247599,0 132.556032,34.24762,0 132.555998,34.247643,0 132.555965,34.247665,0 132.555931,34.247689,0 132.555898,34.247712,0 132.555865,34.247736,0 132.555832,34.247759,0 132.555798,34.247782,0 132.555766,34.247806,0 132.555732,34.247828,0 132.555699,34.247852,0 132.555666,34.247875,0 132.555632,34.247898,0 132.555598,34.247921,0 132.555565,34.247944,0 132.555531,34.247966,0 132.555497,34.247989,0 132.555464,34.248011,0 132.55543,34.248034,0 132.555395,34.248056,0 132.555363,34.248079,0 132.555329,34.248102,0 132.555295,34.248125,0 132.555261,34.248148,0 132.555229,34.248172,0 132.555195,34.248195,0 132.555163,34.248219,0 132.55513,34.248242,0 132.555096,34.248266,0 132.555064,34.248289,0 132.555031,34.248312,0 132.554997,34.248336,0 132.554965,34.248359,0 132.554931,34.248383,0 132.554899,34.248406,0 132.554865,34.24843,0 132.554831,34.248452,0 132.554797,34.248476,0 132.554764,34.248498,0 132.554729,34.24852,0 132.554694,34.24854,0 132.554657,34.248559,0 132.554618,34.248576,0 132.554578,34.248588,0 132.554534,34.248594,0 132.554491,34.248592,0 132.55445,34.248582,0 132.554411,34.248567,0 132.554374,34.248548,0 132.554339,34.248525,0 132.554306,34.248502,0 132.554275,34.248476,0 132.554244,34.248451,0 132.554214,34.248425,0 132.554185,34.248399,0 132.554154,34.248373,0 132.554125,34.248347,0 132.554095,34.248321,0 132.554065,34.248294,0 132.554035,34.248268,0 132.554005,34.248242,0 132.553975,34.248216,0 132.553944,34.24819,0 132.553914,34.248165,0 132.553885,34.248138,0 132.553855,34.248111,0 132.553825,34.248085,0 132.553796,34.248059,0 132.553766,34.248032,0 132.553738,34.248005,0 132.553709,34.247978,0 132.553679,34.247952,0 132.553651,34.247925,0 132.553622,34.247898,0 132.553593,34.247871,0 132.553564,34.247844,0 132.553535,34.247817,0 132.553506,34.247791,0 132.553477,34.247763,0 132.553449,34.247736,0 132.55342,34.247709,0 132.553391,34.247681,0 132.553363,34.247654,0 132.553335,34.247626,0 132.553307,34.247599,0 132.553279,34.247572,0 132.553251,34.247544,0 132.553223,34.247517,0 132.553196,34.247489,0 132.553167,34.247462,0 132.553139,34.247434,0 132.553111,34.247407,0 132.553083,34.247379,0 132.553054,34.247352,0 132.553026,34.247324,0 132.552998,34.247297,0 132.55297,34.247269,0 132.552941,34.247242,0 132.552914,34.247214,0 132.552886,34.247187,0 132.552858,34.247159,0 132.552829,34.247132,0 132.552802,34.247104,0 132.552774,34.247076,0 132.552746,34.247049,0 132.552719,34.247021,0 132.55269,34.246993,0 132.552662,34.246965,0 132.552635,34.246938,0 132.552607,34.24691,0 132.552578,34.246883,0 132.55255,34.246855,0 132.552522,34.246828,0 132.552495,34.2468,0 132.552466,34.246772,0 132.552438,34.246745,0 132.552411,34.246717,0 132.552383,34.246689,0 132.552356,34.246661,0 132.552327,34.246633,0 132.5523,34.246605,0 132.552272,34.246578,0 132.552245,34.24655,0 132.552217,34.246522,0 132.552189,34.246494,0 132.552161,34.246467,0 132.552133,34.246439,0 132.552105,34.246412,0 132.552076,34.246384,0 132.552048,34.246357,0 132.55202,34.24633,0 132.551992,34.246303,0 132.551962,34.246275,0 132.551934,34.246248,0 132.551906,34.246221,0 132.551878,34.246194,0 132.551849,34.246166,0 132.551821,34.246139,0 132.551793,34.246111,0 132.551764,34.246084,0 132.551736,34.246056,0 132.551708,34.246029,0 132.55168,34.246001,0 132.551653,34.245974,0 132.551624,34.245946,0 132.551596,34.245919,0 132.551568,34.245891,0 132.55154,34.245864,0 132.551512,34.245837,0 132.551484,34.245809,0 132.551457,34.245781,0 132.551429,34.245754,0 132.5514,34.245726,0 132.551373,34.245698,0 132.551345,34.24567,0 132.551318,34.245643,0 132.55129,34.245615,0 132.551261,34.245587,0 132.551233,34.24556,0 132.551205,34.245532,0 132.551177,34.245505,0 132.551149,34.245477,0 132.551121,34.24545,0 132.551093,34.245422,0 132.551066,34.245394,0 132.551037,34.245366,0 132.55101,34.245338,0 132.550983,34.24531,0 132.550956,34.245282,0 132.550929,34.245254,0 132.550902,34.245225,0 132.550876,34.245197,0 132.550848,34.245169,0 132.550821,34.245141,0 132.550795,34.245112,0 132.550768,34.245084,0 132.550741,34.245055,0 132.550714,34.245027,0 132.550688,34.244999,0 132.55066,34.24497,0 132.550633,34.244942,0 132.550606,34.244914,0 132.550579,34.244887,0 132.550552,34.244859,0 132.550525,34.24483,0 132.550497,34.244802,0 132.55047,34.244774,0 132.550443,34.244746,0 132.550416,34.244717,0 132.550389,34.244689,0 132.550362,34.24466,0 132.550335,34.244632,0 132.550308,34.244604,0 132.550281,34.244576,0 132.550254,34.244548,0 132.550227,34.24452,0 132.5502,34.244492,0 132.550172,34.244464,0 132.550144,34.244435,0 132.550117,34.244407,0 132.55009,34.244379,0 132.550063,34.244351,0 132.550034,34.244323,0 132.550007,34.244295,0 132.54998,34.244267,0 132.549954,34.244239,0 132.549928,34.244211,0 132.549902,34.244181,0 132.549878,34.244151,0 132.549857,34.24412,0 132.54984,34.244086,0 132.549829,34.244052,0 132.549827,34.244016,0 132.549836,34.243981,0 132.549853,34.243947,0 132.549877,34.243918,0 132.549905,34.243891,0 132.549937,34.243865,0 132.549969,34.243841,0 132.550002,34.243818,0 132.550037,34.243796,0 132.55007,34.243773,0 132.550105,34.243751,0 132.550139,34.243728,0 132.550172,34.243707,0 132.550207,34.243683,0 132.550241,34.243661,0 132.550275,34.243638,0 132.550308,34.243617,0 132.550343,34.243594,0 132.550378,34.243572,0 132.550414,34.243552,0 132.55045,34.243532,0 132.550487,34.243513,0 132.550525,34.243495,0 132.550563,34.243478,0 132.550602,34.243462,0 132.550641,34.243446,0 132.55068,34.24343,0 132.550719,34.243415,0 132.550758,34.243399,0 132.550797,34.243384,0 132.550836,34.243369,0 132.550876,34.243353,0 132.550915,34.243336,0 132.550954,34.243321,0 132.550993,34.243305,0 132.551032,34.243289,0 132.55107,34.243272,0 132.551109,34.243256,0 132.551148,34.243241,0 132.551187,34.243225,0 132.551225,34.243208,0 132.551265,34.243192,0 132.551304,34.243175,0 132.551342,34.243159,0 132.55138,34.243142,0 132.551419,34.243124,0 132.551457,34.243107,0 132.551495,34.243089,0 132.551533,34.243072,0 132.551571,34.243055,0 132.551609,34.243038,0 132.551647,34.243021,0 132.551686,34.243005,0 132.551725,34.242988,0 132.551763,34.242972,0 132.551803,34.242957,0 132.551842,34.242941,0 132.551881,34.242925,0 132.55192,34.242909,0 132.551959,34.242892,0 132.551997,34.242876,0 132.552035,34.242859,0 132.552073,34.242841,0 132.552111,34.242823,0 132.552149,34.242805,0 132.552187,34.242787,0 132.552224,34.24277,0 132.552262,34.242752,0 132.5523,34.242734,0 132.552338,34.242717,0 132.552376,34.2427,0 132.552414,34.242682,0 132.552452,34.242665,0 132.552491,34.242648,0 132.55253,34.242631,0 132.552568,34.242613,0 132.552606,34.242595,0 132.552644,34.242578,0 132.552682,34.24256,0 132.552719,34.242543,0 132.552757,34.242525,0 132.552795,34.242507,0 132.552833,34.24249,0 132.552871,34.242472,0 132.552909,34.242454,0 132.552947,34.242437,0 132.552985,34.24242,0 132.553023,34.242402,0 132.553061,34.242384,0 132.553099,34.242367,0 132.553137,34.242349,0 132.553174,34.242332,0 132.553212,34.242314,0 132.55325,34.242296,0 132.553288,34.242278,0 132.553326,34.242261,0 132.553364,34.242243,0 132.553402,34.242226,0 132.553439,34.242208,0 132.553478,34.242191,0 132.553516,34.242174,0 132.553554,34.242156,0 132.553592,34.242139,0 132.55363,34.242122,0 132.553669,34.242105,0 132.553708,34.242089,0 132.553747,34.242072,0 132.553785,34.242056,0 132.553824,34.242039,0 132.553863,34.242023,0 132.553901,34.242007,0 132.55394,34.241991,0 132.553979,34.241974,0 132.554018,34.241959,0 132.554057,34.241943,0 132.554097,34.241928,0 132.554136,34.241912,0 132.554176,34.241898,0 132.554216,34.241884,0 132.554256,34.241871,0 132.554298,34.241859,0 132.554339,34.241847,0 132.55438,34.241837,0 132.554423,34.241827,0 132.554464,34.241819,0 132.554506,34.24181,0 132.55455,34.241803,0 132.554592,34.241796,0 132.554634,34.24179,0 132.554677,34.241783,0 132.55472,34.241778,0 132.554764,34.241773,0 132.554807,34.241771,0 132.554851,34.241768,0 132.554893,34.241767,0 132.554937,34.241766,0 132.55498,34.241766,0 132.555024,34.241767,0 132.555067,34.241768,0 132.55511,34.24177,0 132.555154,34.241772,0 132.555197,34.241774,0 132.555241,34.241776,0 132.555284,34.241778,0 132.555328,34.24178,0 132.555371,34.241781,0 132.555415,34.241781,0 132.555458,34.24178,0 132.555502,34.241779,0 132.555545,34.241777,0 132.555589,34.241774,0 132.555632,34.241772,0 132.555676,34.241768,0 132.555718,34.241764,0 132.555761,34.241761,0 132.555805,34.241756,0 132.555847,34.241751,0 132.555891,34.241745,0 132.555933,34.241737,0 132.555975,34.241728,0 132.556017,34.241718,0 132.556058,34.241707,0 132.556098,34.241693,0 132.556138,34.241679,0 132.556178,34.241663,0 132.556216,34.241646,0 132.556254,34.241628,0 132.556291,34.241609,0 132.556328,34.24159,0 132.556364,34.241572,0 132.5564,34.241551,0 132.556436,34.24153,0 132.556471,34.241509,0 132.556506,34.241488,0 132.556541,34.241466,0 132.556575,34.241444,0 132.556609,34.241422,0 132.556643,34.241398,0 132.556676,34.241376,0 132.556709,34.241353,0 132.556743,34.241329,0 132.556775,34.241306,0 132.556808,34.241281,0 132.55684,34.241258,0 132.556873,34.241234,0 132.556907,34.241211,0 132.55694,34.241188,0 132.556975,34.241167,0 132.557012,34.241147,0 132.55705,34.241131,0 132.557091,34.241119,0 132.557135,34.241115,0 132.557177,34.241117,0 132.55722,34.241127,0 132.557259,34.241143,0 132.557295,34.241163,0 132.557329,34.241185,0 132.557363,34.241207,0 132.557395,34.241232,0 132.557426,34.241257,0 132.557458,34.241282,0 132.557488,34.241307,0 132.557519,34.241333,0 132.557549,34.241359,0 132.557579,34.241385,0 132.55761,34.24141,0 132.55764,34.241436,0 132.55767,34.241462,0 132.557699,34.241489,0 132.557728,34.241516,0 132.557758,34.241543,0 132.557787,34.241569,0 132.557816,34.241596,0 132.557846,34.241623,0 132.557874,34.24165,0 132.557903,34.241676,0 132.557933,34.241703,0 132.557962,34.24173,0 132.557991,34.241756,0 132.558021,34.241782,0 132.55805,34.241809,0 132.558079,34.241836,0 132.558109,34.241863,0 132.558138,34.24189,0 132.558166,34.241917,0 132.558196,34.241944,0 132.558224,34.241971,0 132.558252,34.241998,0 132.55828,34.242026,0 132.558309,34.242054,0 132.558336,34.242081,0 132.558364,34.242108,0 132.558393,34.242136,0 132.558422,34.242163,0 132.558451,34.24219,0 132.558479,34.242216,0 132.558509,34.242243,0 132.558538,34.242269,0 132.558567,34.242296,0 132.558598,34.242322,0 132.558627,34.242349,0 132.558656,34.242375,0 132.558686,34.242403,0 132.558714,34.242429,0 132.558743,34.242456,0 132.558773,34.242483,0 132.558802,34.24251,0 132.55883,34.242537,0 132.55886,34.242563,0 132.558888,34.24259,0 132.558917,34.242617,0 132.558946,34.242644,0 132.558975,34.242671,0 132.559004,34.242698,0 132.559033,34.242724,0 132.559063,34.24275,0 132.559092,34.242777,0 132.559123,34.242804,0 132.559152,34.24283,0 132.559182,34.242856,0 132.559212,34.242882,0 132.559242,34.242908,0 132.559271,34.242934,0 132.559302,34.24296,0 132.559331,34.242987,0 132.559361,34.243014,0 132.55939,34.243041,0 132.559419,34.243067,0 132.559449,34.243094,0 132.559477,34.243121,0 132.559506,34.243148,0 132.559534,34.243175,0 132.559564,34.243202,0 132.559592,34.243228,0 132.559621,34.243255,0 132.559651,34.243282,0 132.559679,34.243309,0 132.559708,34.243336,0 132.559737,34.243363,0 132.559765,34.24339,0 132.559794,34.243417,0 132.559822,34.243444,0 132.559852,34.243471,0 132.55988,34.243499,0 132.559908,34.243526,0 132.559938,34.243553,0 132.559966,34.243581,0 132.559994,34.243608,0 132.560023,34.243635,0 132.560052,34.243662,0 132.560081,34.243689,0 132.560109,34.243716,0 132.560139,34.243743,0 132.560167,34.24377,0 132.560196,34.243797,0 132.560224,34.243824,0 132.560254,34.243851,0 132.560282,34.243878,0 132.560311,34.243905,0 132.56034,34.243932,0 132.560368,34.243959,0 132.560397,34.243986,0 132.560425,34.244013,0 132.560455,34.24404,0 132.560483,34.244067,0 132.560511,34.244094,0 132.56054,34.244122,0 132.560568,34.244149,0 132.560596,34.244176,0 132.560624,34.244204,0 132.560653,34.244232,0 132.560681,34.244259,0 132.560709,34.244287,0 132.560737,34.244314,0 132.560766,34.244341,0 132.560794,34.244368,0 132.560823,34.244395,0 132.560851,34.244422,0 132.560881,34.244449,0 132.560909,34.244476,0 132.560938,34.244503,0 132.560967,34.244531,0 132.560996,34.244558,0 132.561024,34.244585,0 132.561053,34.244612,0 132.561081,34.24464,0 132.561109,34.244667,0 132.561138,34.244694,0 132.561167,34.244721,0 132.561195,34.244749,0 132.561223,34.244776,0 132.561251,34.244803,0 132.561281,34.24483,0 132.561309,34.244857,0 132.561337,34.244884,0 132.561367,34.244911,0 132.561395,34.244939,0 132.561423,34.244966,0 132.561452,34.244993,0 132.561481,34.24502,0 132.561509,34.245047,0 132.561537,34.245075,0 132.561565,34.245102,0 132.561594,34.245129,0 132.561622,34.245157,0 132.56165,34.245184,0 132.561678,34.245211,0 132.561708,34.245239,0 132.561736,34.245266,0 132.561764,34.245293,0 132.561793,34.24532,0 132.561821,34.245348,0 132.56185,34.245375,0 132.561878,34.245402,0 132.561907,34.245429,0 132.561936,34.245456,0 132.561964,34.245483,0 132.561994,34.24551,0 132.562022,34.245537,0 132.56205,34.245564,0 132.562079,34.245591,0 132.562108,34.245618,0 132.562136,34.245646,0 132.562164,34.245673,0 132.562192,34.245701,0 132.562221,34.245728,0 132.562248,34.245756,0 132.562276,34.245784,0 132.562303,34.245812,0 132.562332,34.24584,0 132.562359,34.245867,0 132.562387,34.245895,0 132.562414,34.245923,0 132.562442,34.245951,0 132.56247,34.245978,0 132.562498,34.246006,0 132.562526,34.246033,0 132.562554,34.246061,0 132.562583,34.246088,0 132.562612,34.246115,0 132.56264,34.246142,0 132.562668,34.24617,0 132.562697,34.246197,0 132.562725,34.246225,0 132.562753,34.246252,0 132.56278,34.24628,0 132.562809,34.246308,0 132.562836,34.246336,0 132.562863,34.246364,0 132.56289,34.246392,0 132.562917,34.24642,0 132.562946,34.246448,0 132.562973,34.246476,0 132.563,34.246503,0 132.563027,34.246531,0 132.563055,34.246559,0 132.563082,34.246587,0 132.563111,34.246615,0 132.563138,34.246642,0 132.563166,34.24667,0 132.563194,34.246698,0 132.563223,34.246725,0 132.563251,34.246753,0 132.563279,34.24678,0 132.563306,34.246808,0 132.563335,34.246835,0 132.563363,34.246863,0 132.563391,34.24689,0 132.563419,34.246918,0 132.563448,34.246945,0 132.563475,34.246973,0 132.563503,34.247001,0 132.563531,34.247028,0 132.56356,34.247056,0 132.563588,34.247083,0 132.563616,34.24711,0 132.563645,34.247137,0 132.563674,34.247164,0 132.563703,34.24719,0 132.563733,34.247217,0 132.563764,34.247243,0 132.563794,34.247268,0 132.563826,34.247293,0 132.563858,34.247317,0 132.563891,34.247341,0 132.563925,34.247364,0 132.563958,34.247386,0 132.563993,34.247408,0 132.564028,34.247429,0 132.564064,34.24745,0 132.5641,34.247471,0 132.564135,34.24749,0 132.564171,34.24751,0 132.564208,34.24753,0 132.564244,34.24755,0 132.564281,34.247569,0 132.564318,34.247589,0 132.564355,34.247608,0 132.564392,34.247626,0 132.564429,34.247646,0 132.564466,34.247665,0 132.564502,34.247684,0 132.564539,34.247703,0 132.564576,34.247723,0 132.564613,34.247742,0 132.564649,34.247761,0 132.564686,34.24778,0 132.564723,34.247799,0 132.56476,34.247818,0 132.564797,34.247837,0 132.564834,34.247855,0 132.564871,34.247874,0 132.564908,34.247893,0 132.564945,34.247913,0 132.564982,34.247932,0 132.565019,34.247951,0 132.565056,34.24797,0 132.565093,34.247989,0 132.56513,34.248008,0 132.565167,34.248026,0 132.565205,34.248045,0 132.565242,34.248064,0 132.565279,34.248083,0 132.565316,34.248101,0 132.565353,34.24812,0 132.56539,34.248139,0 132.565426,34.248159,0 132.565463,34.248178,0 132.565499,34.248197,0 132.565536,34.248216,0 132.565574,34.248235,0 132.565611,34.248254,0 132.565648,34.248273,0 132.565685,34.248291,0 132.565722,34.24831,0 132.565759,34.248329,0 132.565796,34.248348,0 132.565833,34.248366,0 132.565871,34.248385,0 132.565908,34.248403,0 132.565945,34.248422,0 132.565983,34.24844,0 132.566021,34.248458,0 132.566059,34.248476,0 132.566097,34.248492,0 132.566136,34.248509,0 132.566175,34.248524,0 132.566214,34.24854,0 132.566253,34.248555,0 132.566294,34.248569,0 132.566334,34.248584,0 132.566373,34.248598,0 132.566413,34.248612,0 132.566455,34.248624,0 132.566495,34.248637,0 132.566536,34.248649,0 132.566577,34.248661,0 132.566619,34.248672,0 132.56666,34.248683,0 132.566701,34.248693,0 132.566744,34.248702,0 132.566786,34.24871,0 132.566828,34.248717,0 132.566872,34.248723,0 132.566914,34.248729,0 132.566958,34.248732,0 132.567001,34.248735,0 132.567045,34.248737,0 132.567088,34.248737,0 132.567132,34.248737,0 132.567175,34.248735,0 132.567218,34.248734,0 132.567262,34.248733,0 132.567305,34.248732,0 132.567349,34.248733,0 132.567392,34.248733,0 132.567436,34.248734,0 132.567479,34.248735,0 132.567523,34.248735,0 132.567566,34.248735,0 132.56761,34.248734,0 132.567653,34.248732,0 132.567696,34.24873,0 132.567739,34.248727,0 132.567782,34.248724,0 132.567826,34.248721,0 132.567869,34.248717,0 132.567913,34.248713,0 132.567955,34.248708,0 132.567999,34.248704,0 132.568042,34.248699,0 132.568085,34.248695,0 132.568128,34.248689,0 132.56817,34.248683,0 132.568213,34.248676,0 132.568255,34.248667,0 132.568298,34.248657,0 132.568339,34.248646,0 132.56838,34.248635,0 132.568421,34.248624,0 132.568463,34.248613,0 132.568505,34.248604,0 132.568547,34.248595,0 132.56859,34.248587,0 132.568632,34.248579,0 132.568675,34.248572,0 132.568717,34.248564,0 132.568759,34.248556,0 132.568802,34.248548,0 132.568844,34.24854,0 132.568887,34.248531,0 132.568929,34.248524,0 132.568971,34.248516,0 132.569014,34.248508,0 132.569056,34.248501,0 132.569098,34.248493,0 132.569141,34.248485,0 132.569183,34.248477,0 132.569226,34.248469,0 132.569268,34.248462,0 132.56931,34.248454,0 132.569353,34.248445,0 132.569395,34.248436,0 132.569436,34.248426,0 132.569478,34.248413,0 132.569517,34.248399,0 132.569555,34.248381,0 132.56959,34.248358,0 132.56962,34.248333,0 132.569646,34.248304,0 132.569668,34.248273,0 132.569685,34.24824,0 132.5697,34.248206,0 132.569711,34.248172,0 132.56972,34.248136,0 132.569725,34.248101,0 132.569725,34.248065,0 132.56972,34.248028,0 132.569709,34.247993,0 132.569692,34.247961,0 132.56967,34.247929,0 132.569645,34.2479,0 132.569617,34.247873,0 132.569587,34.247846,0 132.569556,34.247821,0 132.569524,34.247796,0 132.569493,34.247772,0 132.56946,34.247747,0 132.569429,34.247723,0 132.569397,34.247699,0 132.569365,34.247673,0 132.569333,34.247649,0 132.569302,34.247625,0 132.56927,34.247599,0 132.569239,34.247574,0 132.569207,34.24755,0 132.569176,34.247525,0 132.569144,34.2475,0 132.569113,34.247475,0 132.569082,34.24745,0 132.569051,34.247425,0 132.569019,34.247399,0 132.568989,34.247374,0 132.568958,34.247349,0 132.568928,34.247323,0 132.568898,34.247297,0 132.568869,34.24727,0 132.56884,34.247243,0 132.56881,34.247216,0 132.568782,34.247189,0 132.568754,34.247161,0 132.568726,34.247134,0 132.568697,34.247106,0 132.568669,34.247079,0 132.568642,34.247051,0 132.568614,34.247024,0 132.568587,34.246996,0 132.568558,34.246969,0 132.568531,34.246941,0 132.568503,34.246913,0 132.568475,34.246885,0 132.568448,34.246858,0 132.568419,34.24683,0 132.568391,34.246802,0 132.568363,34.246775,0 132.568336,34.246747,0 132.568307,34.24672,0 132.568279,34.246692,0 132.568252,34.246664,0 132.568224,34.246637,0 132.568195,34.246609,0 132.568168,34.246581,0 132.56814,34.246553,0 132.568112,34.246526,0 132.568085,34.246498,0 132.568056,34.24647,0 132.568029,34.246443,0 132.568001,34.246415,0 132.567973,34.246387,0 132.567945,34.24636,0 132.567917,34.246332,0 132.567889,34.246304,0 132.567861,34.246277,0 132.567834,34.246249,0 132.567805,34.246221,0 132.567777,34.246194,0 132.56775,34.246166,0 132.567722,34.246138,0 132.567693,34.246111,0 132.567665,34.246084,0 132.567637,34.246056,0 132.567609,34.246029,0 132.56758,34.246001,0 132.567552,34.245974,0 132.567524,34.245947,0 132.567496,34.245919,0 132.567467,34.245892,0 132.567439,34.245864,0 132.567411,34.245837,0 132.567383,34.24581,0 132.567354,34.245782,0 132.567326,34.245755,0 132.567297,34.245728,0 132.567268,34.245701,0 132.56724,34.245673,0 132.567212,34.245646,0 132.567184,34.245619,0 132.567155,34.245591,0 132.567127,34.245564,0 132.567099,34.245536,0 132.567071,34.245509,0 132.567042,34.245481,0 132.567014,34.245454,0 132.566986,34.245427,0 132.566958,34.245399,0 132.566929,34.245372,0 132.566901,34.245345,0 132.566873,34.245318,0 132.566844,34.24529,0 132.566815,34.245263,0 132.566787,34.245236,0 132.566759,34.245208,0 132.566731,34.245181,0 132.566702,34.245153,0 132.566675,34.245126,0 132.566647,34.245098,0 132.566619,34.245071,0 132.56659,34.245043,0 132.566562,34.245015,0 132.566535,34.244988,0 132.566507,34.24496,0 132.56648,34.244932,0 132.566451,34.244905,0 132.566424,34.244877,0 132.566396,34.24485,0 132.566369,34.244822,0 132.566341,34.244794,0 132.566313,34.244766,0 132.566285,34.244738,0 132.566258,34.244711,0 132.56623,34.244683,0 132.566201,34.244655,0 132.566174,34.244628,0 132.566146,34.2446,0 132.566118,34.244573,0 132.566089,34.244545,0 132.566061,34.244518,0 132.566033,34.24449,0 132.566005,34.244463,0 132.565976,34.244435,0 132.565949,34.244408,0 132.565921,34.24438,0 132.565893,34.244352,0 132.565866,34.244324,0 132.565838,34.244297,0 132.56581,34.244269,0 132.565782,34.244241,0 132.565755,34.244213,0 132.565726,34.244185,0 132.565699,34.244158,0 132.565671,34.24413,0 132.565643,34.244103,0 132.565614,34.244075,0 132.565586,34.244048,0 132.565558,34.24402,0 132.56553,34.243993,0 132.565503,34.243965,0 132.565474,34.243938,0 132.565446,34.24391,0 132.565418,34.243883,0 132.56539,34.243855,0 132.565361,34.243828,0 132.565333,34.243801,0 132.565304,34.243773,0 132.565275,34.243746,0 132.565247,34.243719,0 132.565219,34.243692,0 132.565191,34.243664,0 132.565162,34.243637,0 132.565134,34.243609,0 132.565106,34.243582,0 132.565079,34.243554,0 132.56505,34.243526,0 132.565022,34.243499,0 132.564995,34.243471,0 132.564967,34.243444,0 132.56494,34.243416,0 132.564912,34.243388,0 132.564884,34.24336,0 132.564857,34.243332,0 132.56483,34.243304,0 132.564802,34.243276,0 132.564774,34.243249,0 132.564746,34.243221,0 132.564719,34.243193,0 132.564691,34.243165,0 132.564663,34.243138,0 132.564635,34.24311,0 132.564607,34.243082,0 132.564579,34.243055,0 132.564551,34.243027,0 132.564522,34.243,0 132.564494,34.242973,0 132.564466,34.242945,0 132.564438,34.242918,0 132.564409,34.24289,0 132.564381,34.242863,0 132.564354,34.242835,0 132.564326,34.242808,0 132.564297,34.24278,0 132.564269,34.242752,0 132.564242,34.242725,0 132.564214,34.242697,0 132.564185,34.242669,0 132.564158,34.242642,0 132.56413,34.242614,0 132.564102,34.242586,0 132.564075,34.242559,0 132.564046,34.242531,0 132.564018,34.242504,0 132.56399,34.242476,0 132.563963,34.242448,0 132.563934,34.242421,0 132.563906,34.242394,0 132.563878,34.242366,0 132.563851,34.242339,0 132.563823,34.242311,0 132.563794,34.242284,0 132.563766,34.242256,0 132.563738,34.242229,0 132.563711,34.242201,0 132.563682,34.242173,0 132.563654,34.242146,0 132.563627,34.242118,0 132.563599,34.24209,0 132.563571,34.242062,0 132.563543,34.242035,0 132.563515,34.242007,0 132.563487,34.24198,0 132.563458,34.241952,0 132.563431,34.241925,0 132.563403,34.241897,0 132.563375,34.241869,0 132.563348,34.241841,0 132.563322,34.241812,0 132.563295,34.241783,0 132.563272,34.241754,0 132.563248,34.241723,0 132.563226,34.241692,0 132.563206,34.24166,0 132.563188,34.241627,0 132.56317,34.241594,0 132.563154,34.241561,0 132.563138,34.241527,0 132.563122,34.241494,0 132.563104,34.241461,0 132.563086,34.241428,0 132.563065,34.241397,0 132.563043,34.241365,0 132.563019,34.241335,0 132.562996,34.241306,0 132.562969,34.241276,0 132.562943,34.241247,0 132.562917,34.241219,0 132.56289,34.24119,0 132.562863,34.241162,0 132.562835,34.241134,0 132.562808,34.241107,0 132.562779,34.241079,0 132.562751,34.241051,0 132.562724,34.241024,0 132.562696,34.240996,0 132.562668,34.240969,0 132.56264,34.240941,0 132.562613,34.240913,0 132.562585,34.240885,0 132.562558,34.240857,0 132.56253,34.240829,0 132.562502,34.240802,0 132.562474,34.240774,0 132.562447,34.240746,0 132.562419,34.240719,0 132.56239,34.240691,0 132.562362,34.240664,0 132.562334,34.240636,0 132.562305,34.240609,0 132.562277,34.240581,0 132.562249,34.240554,0 132.562221,34.240526,0 132.562194,34.240499,0 132.562165,34.240471,0 132.562137,34.240444,0 132.562109,34.240416,0 132.562081,34.240389,0 132.562052,34.240361,0 132.562025,34.240334,0 132.561997,34.240306,0 132.561969,34.240279,0 132.56194,34.240251,0 132.561913,34.240223,0 132.561885,34.240196,0 132.561857,34.240168,0 132.561828,34.24014,0 132.561801,34.240113,0 132.561773,34.240085,0 132.561745,34.240058,0 132.561716,34.24003,0 132.561688,34.240003,0 132.56166,34.239975,0 132.561632,34.239948,0 132.561603,34.239921,0 132.561575,34.239893,0 132.561547,34.239866,0 132.561519,34.239839,0 132.56149,34.239812,0 132.561461,34.239784,0 132.561433,34.239757,0 132.561405,34.23973,0 132.561376,34.239702,0 132.561349,34.239675,0 132.561321,34.239647,0 132.561293,34.239619,0 132.561264,34.239592,0 132.561237,34.239564,0 132.561209,34.239536,0 132.561181,34.239509,0 132.561152,34.239481,0 132.561124,34.239454,0 132.561097,34.239426,0 132.561069,34.239399,0 132.561041,34.239371,0 132.561012,34.239344,0 132.560984,34.239316,0 132.560956,34.239289,0 132.560928,34.239261,0 132.560899,34.239234,0 132.560871,34.239206,0 132.560843,34.239179,0 132.560815,34.239152,0 132.560786,34.239124,0 132.560758,34.239097,0 132.560729,34.23907,0 132.5607,34.239043,0 132.560672,34.239016,0 132.560643,34.238989,0 132.560615,34.238962,0 132.560586,34.238935,0 132.560558,34.238907,0 132.56053,34.23888,0 132.560502,34.238852,0 132.560473,34.238825,0 132.560446,34.238797,0 132.560419,34.238769,0 132.560391,34.238741,0 132.560364,34.238713,0 132.560336,34.238685,0 132.560309,34.238657,0 132.560282,34.238629,0 132.560255,34.238601,0 132.560228,34.238573,0 132.560201,34.238544,0 132.560173,34.238516,0 132.560147,34.238487,0 132.56012,34.238459,0 132.560095,34.23843,0 132.56007,34.2384,0 132.560047,34.238369,0 132.560027,34.238338,0 132.56001,34.238304,0 132.559998,34.23827,0 132.559995,34.238234,0 132.56,34.238198,0 132.560011,34.238164,0 132.56003,34.238131,0 132.560054,34.238101,0 132.56008,34.238072,0 132.560108,34.238045,0 132.560138,34.238019,0 132.560169,34.237993,0 132.560201,34.237968,0 132.560232,34.237944,0 132.560265,34.237919,0 132.560297,34.237895,0 132.560329,34.237872,0 132.560361,34.237847,0 132.560394,34.237824,0 132.560427,34.2378,0 132.560459,34.237776,0 132.560492,34.237752,0 132.560524,34.237728,0 132.560558,34.237705,0 132.560591,34.237681,0 132.560623,34.237657,0 132.560657,34.237634,0 132.56069,34.23761,0 132.560722,34.237587,0 132.560756,34.237563,0 132.560788,34.23754,0 132.560821,34.237517,0 132.560854,34.237493,0 132.560887,34.23747,0 132.56092,34.237445,0 132.560953,34.237422,0 132.560985,34.237398,0 132.561018,34.237374,0 132.56105,34.237351,0 132.561083,34.237327,0 132.561117,34.237304,0 132.561149,34.23728,0 132.561182,34.237256,0 132.561216,34.237233,0 132.561247,34.237209,0 132.56128,34.237184,0 132.56131,34.237159,0 132.56134,34.237133,0 132.561369,34.237106,0 132.561396,34.237078,0 132.56142,34.237048,0 132.561443,34.237016,0 132.561462,34.236985,0 132.56148,34.236951,0 132.561495,34.236917,0 132.561507,34.236883,0 132.561517,34.236848,0 132.561525,34.236813,0 132.56153,34.236777,0 132.561533,34.236741,0 132.561533,34.236704,0 132.561531,34.236668,0 132.561526,34.236633,0 132.561519,34.236597,0 132.561509,34.236562,0 132.561498,34.236527,0 132.561486,34.236493,0 132.561472,34.236458,0 132.561457,34.236425,0 132.56144,34.236392,0 132.561423,34.236358,0 132.561406,34.236325,0 132.561387,34.236293,0 132.561368,34.23626,0 132.561348,34.236229,0 132.561329,34.236196,0 132.561308,34.236165,0 132.561287,34.236132,0 132.561267,34.236101,0 132.561247,34.236069,0 132.561227,34.236037,0 132.561208,34.236004,0 132.561189,34.235972,0 132.561172,34.235938,0 132.561155,34.235906,0 132.561137,34.235873,0 132.561122,34.235838,0 132.561107,34.235805,0 132.561093,34.235771,0 132.56108,34.235736,0 132.561068,34.235701,0 132.561057,34.235667,0 132.561047,34.235632,0 132.561038,34.235597,0 132.561032,34.235561,0 132.561028,34.235525,0 132.561023,34.235489,0 132.561021,34.235453,0 132.56102,34.235417,0 132.56102,34.235381,0 132.56102,34.235345,0 132.561021,34.235309,0 132.561022,34.235273,0 132.561023,34.235237,0 132.561025,34.235201,0 132.561026,34.235165,0 132.561029,34.235129,0 132.56103,34.235093,0 132.561031,34.235057,0 132.561033,34.235021,0 132.561035,34.234985,0 132.561038,34.234949,0 132.561042,34.234913,0 132.561046,34.234877,0 132.56105,34.234841,0 132.561055,34.234805,0 132.561059,34.234769,0 132.561063,34.234733,0 132.561068,34.234697,0 132.561073,34.234661,0 132.561078,34.234626,0 132.561082,34.23459,0 132.561086,34.234554,0 132.561091,34.234518,0 132.561096,34.234483,0 132.5611,34.234447,0 132.561105,34.234411,0 132.561109,34.234375,0 132.561112,34.234339,0 132.561117,34.234302,0 132.56112,34.234267,0 132.561122,34.234231,0 132.561123,34.234195,0 132.561124,34.234159,0 132.561123,34.234123,0 132.561122,34.234087,0 132.56112,34.234051,0 132.561118,34.234015,0 132.561114,34.233979,0 132.561111,34.233943,0 132.561107,34.233907,0 132.561103,34.233871,0 132.561097,34.233836,0 132.561092,34.2338,0 132.561084,34.233764,0 132.561076,34.233728,0 132.561067,34.233693,0 132.561057,34.233658,0 132.561045,34.233624,0 132.561033,34.233589,0 132.561021,34.233554,0 132.561009,34.23352,0 132.560996,34.233485,0 132.560983,34.233451,0 132.56097,34.233416,0 132.560957,34.233382,0 132.560944,34.233348,0 132.560931,34.233313,0 132.560918,34.233279,0 132.560905,34.233244,0 132.560892,34.23321,0 132.560879,34.233176,0 132.560867,34.233142,0 132.560854,34.233106,0 132.560842,34.233072,0 132.560829,34.233038,0 132.560817,34.233003,0 132.560804,34.232969,0 132.560791,34.232934,0 132.560778,34.2329,0 132.560765,34.232866,0 132.56075,34.232832,0 132.560736,34.232797,0 132.560722,34.232763,0 132.560707,34.23273,0 132.560692,34.232695,0 132.560677,34.232662,0 132.560661,34.232628,0 132.560645,34.232595,0 132.560628,34.232561,0 132.560611,34.232528,0 132.560594,34.232495,0 132.560575,34.232462,0 132.560558,34.23243,0 132.560539,34.232397,0 132.56052,34.232365,0 132.5605,34.232332,0 132.56048,34.232301,0 132.56046,34.232268,0 132.560439,34.232237,0 132.560417,34.232206,0 132.560395,34.232174,0 132.560372,34.232144,0 132.560349,34.232113,0 132.560326,34.232083,0 132.560302,34.232053,0 132.560278,34.232023,0 132.560254,34.231993,0 132.560229,34.231964,0 132.560205,34.231933,0 132.560181,34.231903,0 132.560158,34.231873,0 132.560135,34.231842,0 132.560113,34.231811,0 132.560091,34.23178,0 132.560069,34.231749,0 132.560047,34.231718,0 132.560026,34.231686,0 132.560004,34.231654,0 132.559982,34.231624,0 132.55996,34.231593,0 132.559938,34.231563,0 132.559914,34.231532,0 132.559889,34.231502,0 132.559864,34.231473,0 132.559837,34.231444,0 132.55981,34.231416,0 132.559782,34.231388,0 132.559755,34.231361,0 132.559727,34.231334,0 132.559697,34.231307,0 132.559668,34.231279,0 132.559639,34.231252,0 132.559609,34.231226,0 132.559579,34.2312,0 132.559549,34.231174,0 132.559519,34.231149,0 132.559489,34.231123,0 132.559457,34.231097,0 132.559427,34.231071,0 132.559396,34.231046,0 132.559366,34.231021,0 132.559334,34.230996,0 132.559304,34.230969,0 132.559274,34.230944,0 132.559242,34.230919,0 132.559211,34.230894,0 132.55918,34.230868,0 132.559149,34.230844,0 132.559117,34.230819,0 132.559086,34.230795,0 132.559054,34.230769,0 132.559021,34.230745,0 132.55899,34.230721,0 132.558958,34.230695,0 132.558927,34.230671,0 132.558895,34.230646,0 132.558865,34.230621,0 132.558833,34.230595,0 132.558803,34.23057,0 132.558772,34.230545,0 132.558742,34.230519,0 132.558712,34.230493,0 132.558682,34.230467,0 132.558653,34.230439,0 132.558624,34.230412,0 132.558597,34.230384,0 132.558568,34.230357,0 132.558541,34.230329,0 132.558515,34.2303,0 132.558489,34.230271,0 132.558464,34.230242,0 132.558439,34.230212,0 132.558414,34.230183,0 132.558389,34.230153,0 132.558365,34.230123,0 132.558342,34.230092,0 132.558319,34.230062,0 132.558297,34.230031,0 132.558276,34.23,0 132.558255,34.229967,0 132.558236,34.229936,0 132.558216,34.229903,0 132.558196,34.229872,0 132.558175,34.22984,0 132.558152,34.229809,0 132.558129,34.229778,0 132.558106,34.229748,0 132.558081,34.229718,0 132.558058,34.229688,0 132.558034,34.229658,0 132.558011,34.229627,0 132.557988,34.229597,0 132.557967,34.229565,0 132.557948,34.229533,0 132.557928,34.2295,0 132.55791,34.229468,0 132.557891,34.229435,0 132.557872,34.229403,0 132.557851,34.229371,0 132.557829,34.22934,0 132.557808,34.229309,0 132.557784,34.229279,0 132.557759,34.22925,0 132.557733,34.229221,0 132.557705,34.229192,0 132.557678,34.229164,0 132.55765,34.229137,0 132.557621,34.22911,0 132.55759,34.229084,0 132.557561,34.229058,0 132.557529,34.229033,0 132.557498,34.229008,0 132.557466,34.228984,0 132.557434,34.22896,0 132.5574,34.228936,0 132.557366,34.228914,0 132.557332,34.228892,0 132.557297,34.22887,0 132.557261,34.22885,0 132.557225,34.22883,0 132.557188,34.228811,0 132.55715,34.228793,0 132.557112,34.228775,0 132.557074,34.228759,0 132.557035,34.228742,0 132.556996,34.228726,0 132.556957,34.228711,0 132.556918,34.228695,0 132.55688,34.228679,0 132.55684,34.228663,0 132.556801,34.228646,0 132.556763,34.228629,0 132.556726,34.228611,0 132.556688,34.228593,0 132.556651,34.228575,0 132.556613,34.228556,0 132.556577,34.228536,0 132.556541,34.228517,0 132.556505,34.228496,0 132.556469,34.228476,0 132.556435,34.228454,0 132.556401,34.22843,0 132.556369,34.228407,0 132.556336,34.228383,0 132.556306,34.228357,0 132.556276,34.22833,0 132.556248,34.228303,0 132.55622,34.228275,0 132.556192,34.228247,0 132.556165,34.22822,0 132.556137,34.228193,0 132.556109,34.228165,0 132.556081,34.228137,0 132.556053,34.22811,0 132.556024,34.228083,0 132.555995,34.228056,0 132.555967,34.228028,0 132.555937,34.228001,0 132.555909,34.227974,0 132.55588,34.227947,0 132.55585,34.227921,0 132.555821,34.227894,0 132.555792,34.227868,0 132.555761,34.227842,0 132.555731,34.227817,0 132.555699,34.227791,0 132.555669,34.227766,0 132.555637,34.227741,0 132.555607,34.227716,0 132.555576,34.22769,0 132.555544,34.227665,0 132.555513,34.227641,0 132.55548,34.227617,0 132.555447,34.227592,0 132.555415,34.22757,0 132.555379,34.227548,0 132.555343,34.227528,0 132.555305,34.22751,0 132.555267,34.227494,0 132.555227,34.22748,0 132.555187,34.227466,0 132.555145,34.227455,0 132.555103,34.227445,0 132.555062,34.227436,0 132.555018,34.22743,0 132.554976,34.227426,0 132.554932,34.227422,0 132.554889,34.22742,0 132.554845,34.22742,0 132.554802,34.227421,0 132.554758,34.227424,0 132.554715,34.227428,0 132.554672,34.227433,0 132.554629,34.22744,0 132.554587,34.227447,0 132.554545,34.227456,0 132.554503,34.227467,0 132.554462,34.227479,0 132.554421,34.227492,0 132.554382,34.227507,0 132.554343,34.227523,0 132.554305,34.227541,0 132.554268,34.22756,0 132.554231,34.227579,0 132.554195,34.227599,0 132.55416,34.227619,0 132.554124,34.22764,0 132.554088,34.227661,0 132.554052,34.227681,0 132.554016,34.2277,0 132.553979,34.22772,0 132.553942,34.227739,0 132.553905,34.227757,0 132.553867,34.227776,0 132.55383,34.227794,0 132.553792,34.227812,0 132.553755,34.22783,0 132.553718,34.227849,0 132.55368,34.227867,0 132.553643,34.227886,0 132.553606,34.227905,0 132.553569,34.227924,0 132.553533,34.227943,0 132.553496,34.227962,0 132.553459,34.227981,0 132.553422,34.228001,0 132.553386,34.228019,0 132.553349,34.228039,0 132.553313,34.228059,0 132.553277,34.22808,0 132.553241,34.228101,0 132.553205,34.228121,0 132.55317,34.228142,0 132.553135,34.228163,0 132.553099,34.228184,0 132.553063,34.228203,0 132.553026,34.228223,0 132.552989,34.228242,0 132.552952,34.22826,0 132.552913,34.228277,0 132.552875,34.228293,0 132.552836,34.228309,0 132.552796,34.228323,0 132.552756,34.228337,0 132.552714,34.228349,0 132.552673,34.22836,0 132.552632,34.228371,0 132.552589,34.22838,0 132.552547,34.228387,0 132.552505,34.228394,0 132.552461,34.228399,0 132.552418,34.228403,0 132.552374,34.228404,0 132.552331,34.228405,0 132.552287,34.228403,0 132.552245,34.228402,0 132.552201,34.228397,0 132.552158,34.228393,0 132.552115,34.228385,0 132.552073,34.228377,0 132.552032,34.228366,0 132.551991,34.228355,0 132.55195,34.228341,0 132.551911,34.228326,0 132.551873,34.228309,0 132.551835,34.22829,0 132.551799,34.22827,0 132.551763,34.22825,0 132.551729,34.228228,0 132.551695,34.228206,0 132.551661,34.228183,0 132.551629,34.228158,0 132.551597,34.228134,0 132.551567,34.228109,0 132.551536,34.228083,0 132.551506,34.228056,0 132.551477,34.22803,0 132.551447,34.228003,0 132.551418,34.227976,0 132.55139,34.227949,0 132.55136,34.227922,0 132.551332,34.227895,0 132.551304,34.227868,0 132.551275,34.227841,0 132.551246,34.227814,0 132.551218,34.227786,0 132.55119,34.227759,0 132.551161,34.227732,0 132.551133,34.227704,0 132.551105,34.227677,0 132.551077,34.227649,0 132.551048,34.227622,0 132.551021,34.227594,0 132.550993,34.227567,0 132.550966,34.227539,0 132.550938,34.227511,0 132.550911,34.227482,0 132.550884,34.227453,0 132.550859,34.227425,0 132.550834,34.227395,0 132.55081,34.227364,0 132.550789,34.227334,0 132.550768,34.227302,0 132.55075,34.22727,0 132.550731,34.227236,0 132.550715,34.227203,0 132.550701,34.22717,0 132.550686,34.227135,0 132.550672,34.227101,0 132.550659,34.227067,0 132.550645,34.227033,0 132.55063,34.226998,0 132.550615,34.226965,0 132.550597,34.226932,0 132.550579,34.226899,0 132.550558,34.226868,0 132.550537,34.226836,0 132.550513,34.226806,0 132.550489,34.226777,0 132.550463,34.226747,0 132.550437,34.226719,0 132.550409,34.22669,0 132.550382,34.226662,0 132.550354,34.226634,0 132.550327,34.226607,0 132.550299,34.226579,0 132.55027,34.226552,0 132.550242,34.226524,0 132.550214,34.226496,0 132.550187,34.226469,0 132.550158,34.226441,0 132.55013,34.226414,0 132.550102,34.226386,0 132.550074,34.226359,0 132.550045,34.226331,0 132.550017,34.226304,0 132.54999,34.226276,0 132.549962,34.226248,0 132.549934,34.226221,0 132.549906,34.226193,0 132.549878,34.226165,0 132.549851,34.226138,0 132.549823,34.226111,0 132.549794,34.226083,0 132.549766,34.226056,0 132.549738,34.226028,0 132.54971,34.226001,0 132.549681,34.225974,0 132.549653,34.225946,0 132.549625,34.225919,0 132.549597,34.225891,0 132.549568,34.225864,0 132.54954,34.225837,0 132.549512,34.225809,0 132.549484,34.225782,0 132.549455,34.225754,0 132.549427,34.225727,0 132.5494,34.225699,0 132.549372,34.225672,0 132.549343,34.225644,0 132.549315,34.225617,0 132.549287,34.225589,0 132.549259,34.225562,0 132.549231,34.225534,0 132.549203,34.225507,0 132.549175,34.225479,0 132.549147,34.225452,0 132.549118,34.225424,0 132.54909,34.225397,0 132.549062,34.225369,0 132.549034,34.225342,0 132.549005,34.225314,0 132.548977,34.225287,0 132.548948,34.22526,0 132.54892,34.225234,0 132.548889,34.225206,0 132.54886,34.22518,0 132.548829,34.225155,0 132.548798,34.22513,0 132.548765,34.225106,0 132.548733,34.225082,0 132.548698,34.22506,0 132.548663,34.225039,0 132.548627,34.225019,0 132.548589,34.225,0 132.548551,34.224983,0 132.548512,34.224968,0 132.548472,34.224953,0 132.548432,34.224941,0 132.54839,34.22493,0 132.548348,34.22492,0 132.548306,34.224913,0 132.548263,34.224906,0 132.54822,34.224902,0 132.548176,34.224898,0 132.548133,34.224897,0 132.548089,34.224897,0 132.548046,34.224898,0 132.548003,34.224901,0 132.54796,34.224905,0 132.547916,34.22491,0 132.547874,34.224916,0 132.547832,34.224923,0 132.547788,34.224931,0 132.547746,34.224939,0 132.547705,34.224947,0 132.547662,34.224956,0 132.54762,34.224965,0 132.547577,34.224974,0 132.547536,34.224984,0 132.547494,34.224993,0 132.547452,34.225003,0 132.54741,34.225012,0 132.547369,34.225022,0 132.547326,34.225032,0 132.547284,34.225042,0 132.547243,34.225051,0 132.5472,34.22506,0 132.547159,34.22507,0 132.547117,34.225079,0 132.547075,34.225089,0 132.547033,34.225098,0 132.546991,34.225108,0 132.546949,34.225117,0 132.546907,34.225127,0 132.546866,34.225137,0 132.546823,34.225146,0 132.546782,34.225156,0 132.54674,34.225166,0 132.546698,34.225175,0 132.546656,34.225185,0 132.546614,34.225195,0 132.546572,34.225204,0 132.54653,34.225213,0 132.546487,34.225222,0 132.546446,34.225231,0 132.546404,34.22524,0 132.546361,34.225249,0 132.546319,34.225258,0 132.546278,34.225266,0 132.546235,34.225274,0 132.546192,34.225281,0 132.54615,34.225288,0 132.546106,34.225293,0 132.546064,34.225296,0 132.54602,34.225297,0 132.545977,34.225294,0 132.545933,34.225287,0 132.545892,34.225277,0 132.545853,34.225262,0 132.545815,34.225244,0 132.545778,34.225225,0 132.545744,34.225202,0 132.545712,34.225179,0 132.54568,34.225154,0 132.545649,34.225128,0 132.545619,34.225102,0 132.54559,34.225076,0 132.545561,34.225049,0 132.545531,34.225023,0 132.545502,34.224996,0 132.545474,34.224969,0 132.545444,34.224942,0 132.545416,34.224914,0 132.545387,34.224887,0 132.545358,34.22486,0 132.54533,34.224833,0 132.545301,34.224806,0 132.545273,34.224778,0 132.545244,34.224751,0 132.545216,34.224724,0 132.545188,34.224697,0 132.545158,34.22467,0 132.54513,34.224642,0 132.545102,34.224615,0 132.545073,34.224588,0 132.545043,34.224562,0 132.545015,34.224535,0 132.544986,34.224508,0 132.544956,34.224481,0 132.544927,34.224455,0 132.544899,34.224428,0 132.544869,34.224401,0 132.54484,34.224374,0 132.544811,34.224348,0 132.544782,34.224321,0 132.544753,34.224293,0 132.544725,34.224266,0 132.544695,34.224239,0 132.544667,34.224212,0 132.544639,34.224184,0 132.544611,34.224157,0 132.544584,34.224129,0 132.544556,34.224101,0 132.544531,34.224072,0 132.544506,34.224042,0 132.544484,34.224011,0 132.544463,34.22398,0 132.544444,34.223947,0 132.544428,34.223914,0 132.544414,34.22388,0 132.544403,34.223845,0 132.544396,34.223809,0 132.54439,34.223773,0 132.544387,34.223737,0 132.544387,34.223701,0 132.54439,34.223665,0 132.544396,34.22363,0 132.544404,34.223594,0 132.544415,34.22356,0 132.54443,34.223526,0 132.544448,34.223492,0 132.544467,34.223461,0 132.54449,34.22343,0 132.544514,34.2234,0 132.544541,34.223371,0 132.544568,34.223343,0 132.544598,34.223317,0 132.544628,34.223291,0 132.544659,34.223266,0 132.54469,34.223241,0 132.544722,34.223216,0 132.544754,34.223191,0 132.544786,34.223167,0 132.544818,34.223142,0 132.54485,34.223119,0 132.544882,34.223095,0 132.544915,34.22307,0 132.544947,34.223046,0 132.544979,34.223022,0 132.545012,34.222998,0 132.545044,34.222974,0 132.545077,34.22295,0 132.54511,34.222926,0 132.545142,34.222903,0 132.545175,34.222878,0 132.545207,34.222855,0 132.54524,34.222831,0 132.545273,34.222807,0 132.545305,34.222783,0 132.545337,34.222759,0 132.545369,34.222735,0 132.545402,34.222711,0 132.545434,34.222686,0 132.545466,34.222662,0 132.545499,34.222639,0 132.545531,34.222614,0 132.545564,34.22259,0 132.545595,34.222566,0 132.545628,34.222542,0 132.54566,34.222518,0 132.545693,34.222494,0 132.545725,34.222469,0 132.545757,34.222446,0 132.54579,34.222421,0 132.545822,34.222397,0 132.545854,34.222374,0 132.545887,34.222349,0 132.545919,34.222325,0 132.545952,34.222302,0 132.545984,34.222277,0 132.546017,34.222253,0 132.54605,34.222229,0 132.546081,34.222205,0 132.546114,34.222182,0 132.546146,34.222157,0 132.546179,34.222134,0 132.546211,34.22211,0 132.546244,34.222085,0 132.546277,34.222062,0 132.546309,34.222037,0 132.546342,34.222014,0 132.546373,34.22199,0 132.546406,34.221965,0 132.546439,34.221941,0 132.54647,34.221917,0 132.546502,34.221892,0 132.546533,34.221867,0 132.546565,34.221842,0 132.546595,34.221817,0 132.546624,34.22179,0 132.546654,34.221763,0 132.546681,34.221736,0 132.546708,34.221707,0 132.546733,34.221678,0 132.546757,34.221647,0 132.546778,34.221616,0 132.546796,34.221583,0 132.546811,34.221549,0 132.546823,34.221515,0 132.546832,34.22148,0 132.546837,34.221444,0 132.546838,34.221407,0 132.546838,34.221371,0 132.546834,34.221335,0 132.546828,34.2213,0 132.546818,34.221265,0 132.546805,34.221231,0 132.54679,34.221197,0 132.546771,34.221164,0 132.54675,34.221133,0 132.546729,34.221101,0 132.546705,34.221071,0 132.54668,34.221042,0 132.546654,34.221013,0 132.546627,34.220985,0 132.546599,34.220956,0 132.546572,34.220929,0 132.546544,34.220901,0 132.546517,34.220873,0 132.546489,34.220845,0 132.54646,34.220818,0 132.546432,34.22079,0 132.546405,34.220763,0 132.546377,34.220735,0 132.546348,34.220707,0 132.54632,34.22068,0 132.546292,34.220652,0 132.546265,34.220625,0 132.546236,34.220597,0 132.546208,34.220569,0 132.54618,34.220542,0 132.546152,34.220514,0 132.546125,34.220487,0 132.546096,34.22046,0 132.546068,34.220432,0 132.546039,34.220405,0 132.54601,34.220378,0 132.545982,34.22035,0 132.545954,34.220323,0 132.545926,34.220296,0 132.545897,34.220268,0 132.545869,34.220241,0 132.545841,34.220214,0 132.545813,34.220186,0 132.545784,34.220158,0 132.545756,34.220131,0 132.545729,34.220103,0 132.545701,34.220076,0 132.545672,34.220048,0 132.545644,34.220021,0 132.545616,34.219993,0 132.545588,34.219966,0 132.545559,34.219939,0 132.545531,34.219911,0 132.545503,34.219884,0 132.545475,34.219857,0 132.545446,34.219829,0 132.545418,34.219802,0 132.54539,34.219774,0 132.545363,34.219746,0 132.545334,34.219718,0 132.545307,34.21969,0 132.54528,34.219663,0 132.545253,34.219635,0 132.545226,34.219607,0 132.545199,34.219578,0 132.545173,34.21955,0 132.545145,34.219521,0 132.545119,34.219492,0 132.545093,34.219463,0 132.545068,34.219435,0 132.545043,34.219405,0 132.545018,34.219375,0 132.544994,34.219345,0 132.54497,34.219315,0 132.544947,34.219285,0 132.544925,34.219253,0 132.544903,34.219223,0 132.544881,34.219191,0 132.544861,34.21916,0 132.544841,34.219127,0 132.544823,34.219095,0 132.544804,34.219062,0 132.544787,34.219029,0 132.54477,34.218996,0 132.544755,34.218961,0 132.54474,34.218928,0 132.544727,34.218894,0 132.544714,34.218859,0 132.544701,34.218824,0 132.54469,34.21879,0 132.544679,34.218755,0 132.544669,34.21872,0 132.544661,34.218685,0 132.544652,34.218649,0 132.544646,34.218613,0 132.544638,34.218578,0 132.544632,34.218542,0 132.544627,34.218506,0 132.544623,34.21847,0 132.544619,34.218435,0 132.544617,34.218399,0 132.544617,34.218363,0 132.544619,34.218327,0 132.544622,34.218291,0 132.544626,34.218255,0 132.54463,34.218219,0 132.544636,34.218183,0 132.544641,34.218147,0 132.544647,34.218111,0 132.544652,34.218075,0 132.544657,34.21804,0 132.544664,34.218004,0 132.544669,34.217968,0 132.544676,34.217933,0 132.544681,34.217897,0 132.544688,34.217862,0 132.544693,34.217826,0 132.5447,34.21779,0 132.544705,34.217754,0 132.544711,34.217718,0 132.544716,34.217682,0 132.544723,34.217647,0 132.544728,34.217611,0 132.544734,34.217575,0 132.544739,34.21754,0 132.544745,34.217504,0 132.544752,34.217469,0 132.544759,34.217433,0 132.544767,34.217398,0 132.544776,34.217362,0 132.544786,34.217327,0 132.544798,34.217292,0 132.54481,34.217258,0 132.544823,34.217224,0 132.544838,34.217189,0 132.544853,34.217156,0 132.544868,34.217122,0 132.544885,34.217088,0 132.544902,34.217055,0 132.544918,34.217023,0 132.544936,34.216989,0 132.544953,34.216956,0 132.544972,34.216923,0 132.544989,34.21689,0 132.545007,34.216858,0 132.545025,34.216824,0 132.545043,34.216792,0 132.545062,34.216759,0 132.54508,34.216726,0 132.545098,34.216694,0 132.545116,34.216661,0 132.545133,34.216628,0 132.545151,34.216595,0 132.545168,34.216562,0 132.545186,34.216529,0 132.545201,34.216495,0 132.545216,34.216461,0 132.545229,34.216427,0 132.545241,34.216393,0 132.545252,34.216357,0 132.545261,34.216322,0 132.545268,34.216286,0 132.545275,34.216251,0 132.545279,34.216215,0 132.545283,34.216179,0 132.545288,34.216143,0 132.545291,34.216107,0 132.545294,34.216072,0 132.545296,34.216036,0 132.5453,34.216,0 132.545302,34.215964,0 132.545303,34.215928,0 132.545304,34.215891,0 132.545305,34.215855,0 132.545305,34.215819,0 132.545305,34.215783,0 132.545305,34.215747,0 132.545305,34.215711,0 132.545305,34.215675,0 132.545306,34.215639,0 132.545306,34.215603,0 132.545308,34.215567,0 132.545309,34.215531,0 132.545312,34.215495,0 132.545315,34.215459,0 132.545317,34.215423,0 132.545319,34.215387,0 132.545323,34.215351,0 132.545324,34.215315,0 132.545325,34.215279,0 132.545326,34.215243,0 132.545326,34.215206,0 132.545326,34.21517,0 132.545325,34.215134,0 132.545323,34.215098,0 132.545319,34.215062,0 132.545314,34.215027,0 132.545308,34.214991,0 132.545301,34.214956,0 132.545293,34.21492,0 132.545283,34.214885,0 132.545274,34.21485,0 132.545263,34.214815,0 132.545253,34.21478,0 132.545241,34.214745,0 132.54523,34.21471,0 132.545218,34.214676,0 132.545206,34.21464,0 132.545194,34.214606,0 132.545182,34.214572,0 132.54517,34.214537,0 132.545158,34.214503,0 132.545146,34.214467,0 132.545135,34.214433,0 132.545123,34.214398,0 132.545111,34.214364,0 132.545099,34.21433,0 132.545086,34.214294,0 132.545074,34.21426,0 132.545061,34.214226,0 132.545049,34.214191,0 132.545036,34.214156,0 132.545023,34.214122,0 132.54501,34.214088,0 132.544998,34.214053,0 132.544985,34.214019,0 132.544973,34.213984,0 132.54496,34.213949,0 132.544948,34.213915,0 132.544936,34.213881,0 132.544923,34.213846,0 132.544911,34.213811,0 132.544898,34.213777,0 132.544885,34.213742,0 132.544873,34.213708,0 132.54486,34.213673,0 132.544847,34.213639,0 132.544832,34.213605,0 132.544819,34.213571,0 132.544805,34.213536,0 132.544791,34.213502,0 132.544777,34.213468,0 132.544764,34.213434,0 132.544751,34.213399,0 132.544738,34.213365,0 132.544727,34.21333,0 132.544716,34.213295,0 132.544706,34.21326,0 132.544698,34.213225,0 132.54469,34.213189,0 132.544682,34.213153,0 132.544676,34.213118,0 132.544671,34.213082,0 132.544666,34.213046,0 132.544662,34.213011,0 132.544659,34.212975,0 132.544656,34.212939,0 132.544655,34.212903,0 132.544654,34.212867,0 132.544654,34.212831,0 132.544654,34.212795,0 132.544655,34.212759,0 132.544657,34.212722,0 132.54466,34.212686,0 132.544663,34.21265,0 132.544666,34.212614,0 132.544669,34.212578,0 132.544674,34.212542,0 132.544677,34.212507,0 132.544681,34.212471,0 132.544686,34.212435,0 132.544691,34.212399,0 132.544695,34.212363,0 132.5447,34.212328,0 132.544704,34.212292,0 132.544709,34.212256,0 132.544713,34.21222,0 132.544716,34.212184,0 132.544719,34.212147,0 132.544723,34.212112,0 132.544725,34.212076,0 132.544728,34.21204,0 132.544731,34.212004,0 132.544734,34.211968,0 132.544736,34.211932,0 132.544738,34.211896,0 132.544739,34.21186,0 132.544739,34.211824,0 132.544738,34.211788,0 132.544737,34.211752,0 132.544735,34.211716,0 132.544732,34.21168,0 132.544728,34.211644,0 132.544725,34.211608,0 132.54472,34.211572,0 132.544715,34.211536,0 132.54471,34.2115,0 132.544703,34.211465,0 132.544697,34.211429,0 132.54469,34.211394,0 132.544682,34.211358,0 132.544675,34.211323,0 132.544666,34.211288,0 132.544656,34.211252,0 132.544647,34.211217,0 132.544637,34.211182,0 132.544626,34.211147,0 132.544615,34.211112,0 132.544604,34.211077,0 132.544593,34.211042,0 132.544582,34.211007,0 132.544571,34.210973,0 132.544559,34.210938,0 132.544547,34.210904,0 132.544535,34.210868,0 132.544523,34.210834,0 132.544511,34.210799,0 132.544499,34.210765,0 132.544487,34.210731,0 132.544475,34.210695,0 132.544463,34.21066,0 132.544453,34.210626,0 132.544443,34.210591,0 132.544435,34.210555,0 132.544428,34.21052,0 132.544424,34.210484,0 132.544422,34.210448,0 132.544421,34.210412,0 132.544421,34.210375,0 132.544422,34.210339,0 132.544423,34.210303,0 132.544424,34.210267,0 132.544424,34.210231,0 132.544423,34.210195,0 132.544419,34.210159,0 132.544416,34.210123,0 132.544411,34.210088,0 132.544404,34.210052,0 132.544397,34.210017,0 132.544388,34.209981,0 132.544379,34.209946,0 132.544369,34.20991,0 132.54436,34.209875,0 132.54435,34.20984,0 132.544339,34.209806,0 132.544328,34.209771,0 132.544318,34.209736,0 132.544306,34.2097,0 132.544296,34.209666,0 132.544285,34.209631,0 132.544273,34.209596,0 132.544262,34.209562,0 132.544251,34.209526,0 132.544239,34.209492,0 132.544227,34.209457,0 132.544215,34.209423,0 132.544203,34.209388,0 132.544191,34.209353,0 132.544178,34.209319,0 132.544165,34.209284,0 132.544152,34.20925,0 132.544139,34.209216,0 132.544126,34.209181,0 132.544113,34.209147,0 132.5441,34.209113,0 132.544087,34.209078,0 132.544075,34.209043,0 132.544063,34.209009,0 132.54405,34.208974,0 132.544038,34.20894,0 132.544026,34.208905,0 132.544014,34.20887,0 132.544002,34.208836,0 132.54399,34.208801,0 132.543978,34.208767,0 132.543966,34.208732,0 132.543954,34.208697,0 132.543942,34.208662,0 132.54393,34.208628,0 132.543919,34.208593,0 132.543907,34.208558,0 132.543895,34.208523,0 132.543883,34.208489,0 132.543871,34.208455,0 132.543859,34.20842,0 132.543847,34.208385,0 132.543834,34.20835,0 132.543822,34.208316,0 132.54381,34.208282,0 132.543797,34.208247,0 132.543785,34.208212,0 132.543772,34.208178,0 132.543759,34.208144,0 132.543746,34.208109,0 132.543734,34.208074,0 132.543721,34.20804,0 132.543709,34.208005,0 132.543698,34.207971,0 132.543686,34.207936,0 132.543675,34.2079,0 132.543664,34.207866,0 132.543654,34.207831,0 132.543644,34.207796,0 132.543634,34.207761,0 132.543624,34.207726,0 132.543614,34.20769,0 132.543604,34.207655,0 132.543595,34.20762,0 132.543584,34.207585,0 132.543574,34.207551,0 132.543562,34.207516,0 132.543551,34.20748,0 132.543541,34.207445,0 132.543532,34.20741,0 132.543523,34.207375,0 132.543515,34.20734,0 132.54351,34.207304,0 132.543507,34.207268,0 132.543504,34.207232,0 132.543503,34.207196,0 132.543504,34.20716,0 132.543507,34.207124,0 132.54351,34.207088,0 132.543514,34.207052,0 132.54352,34.207016,0 132.543527,34.206981,0 132.543536,34.206945,0 132.543546,34.20691,0 132.543558,34.206876,0 132.54357,34.206841,0 132.543583,34.206806,0 132.543597,34.206772,0 132.543611,34.206739,0 132.543627,34.206704,0 132.543644,34.206671,0 132.543661,34.206639,0 132.543678,34.206605,0 132.543697,34.206573,0 132.543715,34.20654,0 132.543734,34.206508,0 132.543753,34.206476,0 132.543772,34.206443,0 132.543791,34.206411,0 132.543812,34.206379,0 132.543833,34.206348,0 132.543855,34.206316,0 132.543879,34.206286,0 132.543904,34.206257,0 132.543932,34.206229,0 132.54396,34.206202,0 132.543989,34.206175,0 132.544021,34.206149,0 132.544051,34.206124,0 132.544083,34.206099,0 132.544112,34.206073,0 132.544141,34.206046,0 132.544167,34.206017,0 132.54419,34.205986,0 132.544206,34.205953,0 132.544218,34.205919,0 132.544225,34.205882,0 132.544226,34.205846,0 132.544225,34.20581,0 132.544222,34.205775,0 132.544217,34.205739,0 132.544213,34.205703,0 132.544209,34.205667,0 132.544204,34.205631,0 132.544201,34.205595,0 132.544199,34.20556,0 132.544196,34.205524,0 132.544192,34.205488,0 132.544189,34.205452,0 132.544184,34.205416,0 132.544176,34.20538,0 132.544166,34.205345,0 132.544155,34.20531,0 132.544142,34.205276,0 132.544127,34.205242,0 132.544111,34.205208,0 132.544093,34.205176,0 132.544075,34.205142,0 132.544057,34.205111,0 132.544036,34.205079,0 132.544014,34.205047,0 132.543992,34.205016,0 132.54397,34.204986,0 132.543946,34.204955,0 132.543922,34.204925,0 132.543897,34.204896,0 132.543872,34.204866,0 132.543847,34.204837,0 132.543821,34.204808,0 132.543795,34.204779,0 132.543769,34.20475,0 132.543741,34.204722,0 132.543714,34.204694,0 132.543687,34.204666,0 132.543659,34.204639,0 132.543631,34.204612,0 132.543601,34.204585,0 132.543573,34.204558,0 132.543544,34.204531,0 132.543514,34.204504,0 132.543485,34.204477,0 132.543454,34.204451,0 132.543425,34.204425,0 132.543396,34.204398,0 132.543366,34.204372,0 132.543337,34.204345,0 132.543309,34.204318,0 132.54328,34.204291,0 132.543251,34.204264,0 132.543223,34.204236,0 132.543196,34.204208,0 132.543169,34.20418,0 132.543142,34.204152,0 132.543114,34.204124,0 132.543087,34.204096,0 132.54306,34.204067,0 132.543032,34.204039,0 132.543005,34.204011,0 132.542977,34.203984,0 132.542949,34.203956,0 132.542921,34.203929,0 132.542893,34.203901,0 132.542863,34.203874,0 132.542835,34.203847,0 132.542806,34.203821,0 132.542776,34.203794,0 132.542747,34.203767,0 132.542718,34.203741,0 132.542688,34.203714,0 132.542659,34.203688,0 132.54263,34.203662,0 132.5426,34.203635,0 132.54257,34.203608,0 132.542541,34.203582,0 132.54251,34.203556,0 132.542481,34.20353,0 132.542451,34.203504,0 132.542421,34.203477,0 132.542392,34.203451,0 132.542362,34.203425,0 132.542332,34.203398,0 132.542303,34.203372,0 132.542272,34.203346,0 132.542243,34.20332,0 132.542212,34.203294,0 132.542183,34.203268,0 132.542153,34.203242,0 132.542123,34.203216,0 132.542093,34.203189,0 132.542064,34.203162,0 132.542033,34.203136,0 132.542004,34.20311,0 132.541974,34.203084,0 132.541944,34.203058,0 132.541915,34.203032,0 132.541884,34.203005,0 132.541854,34.202979,0 132.541824,34.202953,0 132.541794,34.202927,0 132.541764,34.202902,0 132.541733,34.202876,0 132.541703,34.20285,0 132.541672,34.202824,0 132.541643,34.202798,0 132.541613,34.202772,0 132.541583,34.202746,0 132.541554,34.202719,0 132.541525,34.202692,0 132.541495,34.202665,0 132.541467,34.202638,0 132.54144,34.20261,0 132.541413,34.202582,0 132.541386,34.202553,0 132.54136,34.202524,0 132.541337,34.202494,0 132.541315,34.202463,0 132.541293,34.202431,0 132.541273,34.202399,0 132.541256,34.202366,0 132.54124,34.202333,0 132.541226,34.202299,0 132.541212,34.202265,0 132.5412,34.20223,0 132.541188,34.202195,0 132.541178,34.20216,0 132.541168,34.202125,0 132.541159,34.20209,0 132.541152,34.202055,0 132.541145,34.202019,0 132.541139,34.201983,0 132.541134,34.201947,0 132.54113,34.201911,0 132.541126,34.201875,0 132.541122,34.201839,0 132.541119,34.201803,0 132.541115,34.201768,0 132.541112,34.201732,0 132.541108,34.201696,0 132.541104,34.20166,0 132.541101,34.201624,0 132.541097,34.201588,0 132.541094,34.201552,0 132.541091,34.201516,0 132.541089,34.20148,0 132.541085,34.201444,0 132.541082,34.201408,0 132.541079,34.201372,0 132.541076,34.201336,0 132.541074,34.2013,0 132.541071,34.201264,0 132.541069,34.201228,0 132.541067,34.201192,0 132.541065,34.201156,0 132.541063,34.20112,0 132.541059,34.201084,0 132.541057,34.201048,0 132.541054,34.201012,0 132.541052,34.200977,0 132.54105,34.200941,0 132.541047,34.200905,0 132.541045,34.200868,0 132.541043,34.200832,0 132.541042,34.200796,0 132.54104,34.20076,0 132.541037,34.200724,0 132.541034,34.200688,0 132.541031,34.200652,0 132.541029,34.200616,0 132.541027,34.20058,0 132.541026,34.200544,0 132.541024,34.200508,0 132.541022,34.200472,0 132.54102,34.200436,0 132.541018,34.2004,0 132.541016,34.200364,0 132.541012,34.200329,0 132.541008,34.200293,0 132.541004,34.200257,0 132.540999,34.20022,0 132.540993,34.200184,0 132.540989,34.200149,0 132.540983,34.200113,0 132.540978,34.200077,0 132.540972,34.200042,0 132.540966,34.200006,0 132.540961,34.19997,0 132.540954,34.199935,0 132.540946,34.199899,0 132.540939,34.199864,0 132.540931,34.199828,0 132.540924,34.199792,0 132.540915,34.199757,0 132.540906,34.199722,0 132.540896,34.199687,0 132.540887,34.199652,0 132.540877,34.199617,0 132.540865,34.199581,0 132.540853,34.199547,0 132.540841,34.199513,0 132.540827,34.199479,0 132.540813,34.199444,0 132.540799,34.19941,0 132.540783,34.199377,0 132.540769,34.199343,0 132.540754,34.199308,0 132.54074,34.199275,0 132.540726,34.199241,0 132.540711,34.199206,0 132.540696,34.199172,0 132.540681,34.199139,0 132.540667,34.199105,0 132.540652,34.19907,0 132.540638,34.199037,0 132.540623,34.199003,0 132.540607,34.198969,0 132.540593,34.198935,0 132.540578,34.198901,0 132.540564,34.198868,0 132.540549,34.198833,0 132.540535,34.198799,0 132.540519,34.198766,0 132.540505,34.198732,0 132.54049,34.198697,0 132.540476,34.198664,0 132.540462,34.19863,0 132.540446,34.198595,0 132.540432,34.198562,0 132.540417,34.198528,0 132.540403,34.198494,0 132.540388,34.19846,0 132.540372,34.198427,0 132.540355,34.198394,0 132.540338,34.19836,0 132.54032,34.198327,0 132.540303,34.198294,0 132.540285,34.198261,0 132.540266,34.198229,0 132.540248,34.198196,0 132.54023,34.198164,0 132.540212,34.19813,0 132.540193,34.198098,0 132.540175,34.198065,0 132.540156,34.198032,0 132.540139,34.198,0 132.54012,34.197967,0 132.540102,34.197934,0 132.540084,34.197901,0 132.540066,34.197869,0 132.540048,34.197836,0 132.540029,34.197803,0 132.540012,34.197771,0 132.539993,34.197737,0 132.539976,34.197705,0 132.539957,34.197672,0 132.53994,34.197639,0 132.539923,34.197606,0 132.539905,34.197572,0 132.539888,34.19754,0 132.539871,34.197507,0 132.539853,34.197473,0 132.539836,34.197441,0 132.539819,34.197407,0 132.539802,34.197374,0 132.539785,34.197342,0 132.539767,34.197308,0 132.539749,34.197275,0 132.539731,34.197243,0 132.539712,34.19721,0 132.539693,34.197178,0 132.539673,34.197146,0 132.539652,34.197114,0 132.53963,34.197083,0 132.539609,34.197051,0 132.539586,34.197021,0 132.539562,34.19699,0 132.539538,34.19696,0 132.539514,34.196931,0 132.53949,34.196901,0 132.539465,34.196871,0 132.539441,34.196841,0 132.539417,34.196811,0 132.539396,34.19678,0 132.539374,34.196749,0 132.539353,34.196717,0 132.539335,34.196685,0 132.539317,34.196651,0 132.539301,34.196617,0 132.539288,34.196584,0 132.539275,34.196549,0 132.539265,34.196513,0 132.539257,34.196478,0 132.53925,34.196443,0 132.539244,34.196407,0 132.539239,34.196371,0 132.539235,34.196335,0 132.53923,34.1963,0 132.539225,34.196264,0 132.539217,34.196229,0 132.539208,34.196193,0 132.539197,34.196158,0 132.539182,34.196124,0 132.539164,34.196092,0 132.539144,34.196059,0 132.53912,34.196029,0 132.539094,34.196001,0 132.539065,34.195974,0 132.539035,34.195947,0 132.539003,34.195922,0 132.538971,34.195899,0 132.538938,34.195875,0 132.538904,34.195852,0 132.538871,34.195829,0 132.538837,34.195808,0 132.538802,34.195785,0 132.538768,34.195763,0 132.538734,34.195741,0 132.538699,34.195719,0 132.538664,34.195697,0 132.538631,34.195675,0 132.538596,34.195654,0 132.538561,34.195631,0 132.538527,34.195608,0 132.538494,34.195586,0 132.538461,34.195563,0 132.538428,34.195538,0 132.538399,34.195512,0 132.538372,34.195483,0 132.53835,34.195453,0 132.538335,34.195418,0 132.538329,34.195383,0 132.538336,34.195348,0 132.538357,34.195316,0 132.538387,34.195291,0 132.538426,34.195275,0 132.538468,34.195265,0 132.538511,34.195261,0 132.538555,34.19526,0 132.538598,34.195261,0 132.53864,34.195265,0 132.538684,34.195269,0 132.538727,34.19527,0 132.538771,34.195269,0 132.538813,34.195261,0 132.538852,34.195246,0 132.538886,34.195224,0 132.538911,34.195194,0 132.538924,34.19516,0 132.538925,34.195124,0 132.538913,34.195089,0 132.53889,34.195059,0 132.538858,34.195035,0 132.538819,34.195018,0 132.538777,34.195008,0 132.538734,34.195004,0 132.53869,34.195004,0 132.538648,34.195006,0 132.538605,34.195012,0 132.538562,34.195018,0 132.53852,34.195026,0 132.538477,34.195037,0 132.538437,34.195051,0 132.538399,34.195067,0 132.538364,34.195088,0 132.538336,34.195115,0 132.538317,34.195148,0 132.538307,34.195183,0 132.538307,34.195219,0 132.538317,34.195253,0 132.538334,34.195287,0 132.538358,34.195316,0 132.538387,34.195343,0 132.538422,34.195364,0 132.538461,34.195381,0 132.538501,34.195395,0 132.538543,34.195405,0 132.538585,34.195413,0 132.538628,34.195418,0 132.538671,34.195423,0 132.538714,34.195425,0 132.538758,34.195426,0 132.538801,34.195423,0 132.538845,34.195417,0 132.538886,34.195408,0 132.538927,34.195396,0 132.538965,34.195379,0 132.539,34.195357,0 132.539032,34.195332,0 132.539059,34.195305,0 132.539083,34.195274,0 132.539101,34.195242,0 132.539115,34.195207,0 132.539124,34.195172,0 132.539127,34.195136,0 132.539125,34.1951,0 132.539117,34.195065,0 132.539104,34.195031,0 132.539086,34.194998,0 132.539062,34.194968,0 132.539033,34.194941,0 132.539,34.194917,0 132.538964,34.194896,0 132.538926,34.19488,0 132.538885,34.194868,0 132.538844,34.194859,0 132.5388,34.194852,0 132.538757,34.194849,0 132.538713,34.194847,0 132.53867,34.194847,0 132.538626,34.194847,0 132.538583,34.194849,0 132.53854,34.19485,0 132.538497,34.194853,0 132.538453,34.194855,0 132.53841,34.194858,0 132.538367,34.194859,0 132.538323,34.194862,0 132.53828,34.194864,0 132.538236,34.194867,0 132.538193,34.194869,0 132.538149,34.194871,0 132.538106,34.194874,0 132.538062,34.194877,0 132.53802,34.194878,0 132.537976,34.194881,0 132.537933,34.194884,0 132.537889,34.194886,0 132.537846,34.194888,0 132.537803,34.194891,0 132.537759,34.194893,0 132.537716,34.194896,0 132.537672,34.194898,0 132.537629,34.1949,0 132.537585,34.194903,0 132.537543,34.194905,0 132.537499,34.194907,0 132.537456,34.19491,0 132.537412,34.194913,0 132.537369,34.194914,0 132.537325,34.194917,0 132.537282,34.19492,0 132.537239,34.194922,0 132.537195,34.194924,0 132.537152,34.194927,0 132.537108,34.194929,0 132.537065,34.194932,0 132.537022,34.194934,0 132.536979,34.194936,0 132.536935,34.194939,0 132.536892,34.194942,0 132.536848,34.194943,0 132.536805,34.194946,0 132.536761,34.194949,0 132.536718,34.194951,0 132.536675,34.194954,0 132.536631,34.194957,0 132.536589,34.19496,0 132.536545,34.194965,0 132.536503,34.194971,0 132.53646,34.194979,0 132.536418,34.19499,0 132.536379,34.195005,0 132.536341,34.195023,0 132.536308,34.195046,0 132.53628,34.195073,0 132.536258,34.195105,0 132.536243,34.195138,0 132.536236,34.195173,0 132.536236,34.195209,0 132.536242,34.195245,0 132.536257,34.195279,0 132.536281,34.195309,0 132.536311,34.195335,0 132.536346,34.195355,0 132.536387,34.19537,0 132.536429,34.195377,0 132.536472,34.195378,0 132.536515,34.195371,0 132.536555,34.195358,0 132.536591,34.195338,0 132.536621,34.195312,0 132.536646,34.195282,0 132.536663,34.195249,0 132.53667,34.195214,0 132.536671,34.195178,0 132.536664,34.195142,0 132.536647,34.195109,0 132.536623,34.195079,0 132.536593,34.195054,0 132.536556,34.195034,0 132.536515,34.195023,0 132.536471,34.195018,0 132.536429,34.19502,0 132.536387,34.195029,0 132.536347,34.195045,0 132.536314,34.195068,0 132.536287,34.195096,0 132.536267,34.195128,0 132.536255,34.195162,0 132.536252,34.195198,0 132.536256,34.195234,0 132.53627,34.195268,0 132.536293,34.195298,0 132.536322,34.195325,0 132.536358,34.195346,0 132.536397,34.195361,0 132.536439,34.195371,0 132.536482,34.195377,0 132.536526,34.19538,0 132.536569,34.19538,0 132.536613,34.195377,0 132.536655,34.195372,0 132.536698,34.195365,0 132.536739,34.195353,0 132.536776,34.195334,0 132.536805,34.195308,0 132.536825,34.195276,0 132.536838,34.195242,0 132.536846,34.195206,0 132.536854,34.19517,0 132.53686,34.195135,0 132.536866,34.195099,0 132.536871,34.195064,0 132.536878,34.195028,0 132.536882,34.194992,0 132.536884,34.194956,0 132.536883,34.19492,0 132.536877,34.194885,0 132.536863,34.19485,0 132.536843,34.194818,0 132.536818,34.194788,0 132.536792,34.19476,0 132.536765,34.194732,0 132.536738,34.194704,0 132.536713,34.194674,0 132.53669,34.194643,0 132.53667,34.194612,0 132.536651,34.194579,0 132.536634,34.194546,0 132.536618,34.194512,0 132.536602,34.194479,0 132.536587,34.194446,0 132.53657,34.194412,0 132.536553,34.194378,0 132.536535,34.194346,0 132.536516,34.194313,0 132.536494,34.194283,0 132.536469,34.194253,0 132.536442,34.194225,0 132.536412,34.194199,0 132.536379,34.194175,0 132.536344,34.194154,0 132.536308,34.194133,0 132.536271,34.194114,0 132.536233,34.194096,0 132.536195,34.194079,0 132.536157,34.194062,0 132.536118,34.194046,0 132.53608,34.194029,0 132.536041,34.194012,0 132.536003,34.193996,0 132.535964,34.19398,0 132.535925,34.193963,0 132.535887,34.193946,0 132.535848,34.19393,0 132.53581,34.193914,0 132.53577,34.193897,0 132.535731,34.193881,0 132.535693,34.193864,0 132.535654,34.193847,0 132.535616,34.193831,0 132.535577,34.193815,0 132.535539,34.193799,0 132.5355,34.193782,0 132.535461,34.193765,0 132.535423,34.193749,0 132.535384,34.193732,0 132.535346,34.193716,0 132.535306,34.1937,0 132.535268,34.193683,0 132.535229,34.193666,0 132.535199,34.193654,0 132.535199,34.193654,0
  </coordinates></LineString></Placemark>
  <Placemark><name>新設高架 1</name><styleUrl>#viaduct</styleUrl><LineString><tessellate>1</tessellate><coordinates>
132.553069,34.247365,0 132.553054,34.247352,0 132.55304,34.247338,0 132.553026,34.247324,0 132.553012,34.24731,0 132.552998,34.247297,0 132.552984,34.247283,0 132.55297,34.247269,0 132.552956,34.247255,0 132.552941,34.247242,0 132.552927,34.247228,0 132.552914,34.247214,0 132.5529,34.2472,0 132.552886,34.247187,0 132.552872,34.247173,0 132.552858,34.247159,0 132.552844,34.247145,0 132.552829,34.247132,0 132.552815,34.247117,0 132.552802,34.247104,0 132.552788,34.24709,0 132.552774,34.247076,0 132.55276,34.247062,0 132.552746,34.247049,0 132.552732,34.247034,0 132.552719,34.247021,0 132.552704,34.247006,0 132.55269,34.246993,0 132.552676,34.246979,0 132.552662,34.246965,0 132.552648,34.246951,0 132.552635,34.246938,0 132.552621,34.246924,0 132.552607,34.24691,0 132.552593,34.246896,0 132.552578,34.246883,0 132.552564,34.246868,0 132.55255,34.246855,0 132.552536,34.246841,0 132.552522,34.246828,0 132.552508,34.246814,0 132.552495,34.2468,0 132.552481,34.246786,0 132.552466,34.246772,0 132.552452,34.246759,0 132.552438,34.246745,0 132.552424,34.246731,0 132.552411,34.246717,0 132.552397,34.246703,0 132.552383,34.246689,0 132.552369,34.246676,0 132.552356,34.246661,0 132.552342,34.246648,0 132.552327,34.246633,0 132.552314,34.24662,0 132.5523,34.246605,0 132.552286,34.246592,0 132.552272,34.246578,0 132.552259,34.246564,0 132.552245,34.24655,0 132.552231,34.246536,0 132.552217,34.246522,0 132.552204,34.246509,0 132.552189,34.246494,0 132.552175,34.246481,0 132.552161,34.246467,0 132.552147,34.246453,0 132.552133,34.246439,0 132.552119,34.246426,0 132.552105,34.246412,0 132.55209,34.246399,0 132.552076,34.246384,0 132.552062,34.246371,0 132.552048,34.246357,0 132.552034,34.246344,0 132.55202,34.24633,0 132.552006,34.246317,0 132.551992,34.246303,0 132.551977,34.246289,0 132.551962,34.246275,0 132.551948,34.246262,0 132.551934,34.246248,0 132.55192,34.246235,0 132.551906,34.246221,0 132.551892,34.246208,0 132.551878,34.246194,0 132.551863,34.24618,0 132.551849,34.246166,0 132.551835,34.246153,0 132.551821,34.246139,0 132.551807,34.246126,0 132.551793,34.246111,0 132.551779,34.246098,0 132.551764,34.246084,0 132.55175,34.246071,0 132.551736,34.246056,0 132.551722,34.246043,0 132.551708,34.246029,0 132.551694,34.246016,0 132.55168,34.246001,0 132.551667,34.245988,0 132.551653,34.245974,0 132.551638,34.245961,0 132.551624,34.245946,0 132.55161,34.245933,0 132.551596,34.245919,0 132.551582,34.245905,0 132.551568,34.245891,0 132.551554,34.245878,0 132.55154,34.245864,0 132.551527,34.24585,0 132.551512,34.245837,0 132.551498,34.245823,0 132.551484,34.245809,0 132.55147,34.245795,0 132.551457,34.245781,0 132.551443,34.245767,0 132.551429,34.245754,0 132.551415,34.245739,0 132.5514,34.245726,0 132.551387,34.245711,0 132.551373,34.245698,0 132.551359,34.245684,0 132.551345,34.24567,0 132.551332,34.245656,0 132.551318,34.245643,0 132.551304,34.245628,0 132.55129,34.245615,0 132.551275,34.245601,0 132.551261,34.245587,0 132.551247,34.245573,0 132.551233,34.24556,0 132.551219,34.245546,0 132.551205,34.245532,0 132.551191,34.245518,0 132.551177,34.245505,0 132.551164,34.245491,0 132.551149,34.245477,0 132.551135,34.245463,0 132.551121,34.24545,0 132.551107,34.245435,0 132.551093,34.245422,0 132.551079,34.245408,0 132.551066,34.245394,0 132.551052,34.24538,0 132.551037,34.245366,0 132.551024,34.245353,0 132.55101,34.245338,0 132.550997,34.245325,0
  </coordinates></LineString></Placemark>
  <Placemark><name>新設高架 2</name><styleUrl>#viaduct</styleUrl><LineString><tessellate>1</tessellate><coordinates>
132.540338,34.19836,0 132.540329,34.198343,0 132.54032,34.198327,0 132.540312,34.198311,0 132.540303,34.198294,0 132.540294,34.198278,0 132.540285,34.198261,0 132.540276,34.198245,0 132.540266,34.198229,0 132.540257,34.198212,0 132.540248,34.198196,0 132.540239,34.19818,0 132.54023,34.198164,0 132.54022,34.198147,0 132.540212,34.19813,0 132.540202,34.198114,0 132.540193,34.198098,0 132.540184,34.198082,0 132.540175,34.198065,0 132.540166,34.198049,0 132.540156,34.198032,0 132.540148,34.198016,0 132.540139,34.198,0 132.540129,34.197983,0 132.54012,34.197967,0 132.540111,34.197951,0 132.540102,34.197934,0 132.540093,34.197918,0 132.540084,34.197901,0 132.540075,34.197885,0 132.540066,34.197869,0 132.540056,34.197853,0 132.540048,34.197836,0 132.540038,34.197819,0 132.540029,34.197803,0 132.540021,34.197787,0 132.540012,34.197771,0 132.540002,34.197754,0 132.539993,34.197737,0 132.539985,34.197721,0 132.539976,34.197705,0 132.539966,34.197689,0 132.539957,34.197672,0 132.539949,34.197655,0 132.53994,34.197639,0 132.539931,34.197622,0 132.539923,34.197606,0 132.539914,34.19759,0 132.539905,34.197572,0 132.539897,34.197556,0 132.539888,34.19754,0 132.539879,34.197523,0 132.539871,34.197507,0 132.539862,34.19749,0 132.539853,34.197473,0 132.539844,34.197457,0 132.539836,34.197441,0 132.539827,34.197424,0 132.539819,34.197407,0 132.539811,34.197391,0 132.539802,34.197374,0 132.539793,34.197358,0 132.539785,34.197342,0 132.539776,34.197325,0 132.539767,34.197308,0 132.539758,34.197292,0 132.539749,34.197275,0 132.53974,34.197259,0 132.539731,34.197243,0 132.539722,34.197226,0 132.539712,34.19721,0 132.539703,34.197194,0 132.539693,34.197178,0 132.539684,34.197161,0 132.539673,34.197146,0 132.539663,34.19713,0 132.539652,34.197114,0 132.539641,34.197098,0 132.53963,34.197083,0 132.53962,34.197067,0 132.539609,34.197051,0 132.539598,34.197036,0 132.539586,34.197021,0 132.539574,34.197005,0 132.539562,34.19699,0 132.53955,34.196976,0 132.539538,34.19696,0 132.539526,34.196945,0 132.539514,34.196931,0 132.539502,34.196915,0 132.53949,34.196901,0 132.539477,34.196886,0 132.539465,34.196871,0 132.539453,34.196856,0 132.539441,34.196841,0 132.539429,34.196826,0 132.539417,34.196811,0 132.539407,34.196795,0 132.539396,34.19678,0 132.539384,34.196764,0 132.539374,34.196749,0 132.539363,34.196732,0 132.539353,34.196717,0 132.539343,34.196701,0 132.539335,34.196685,0 132.539325,34.196668,0 132.539317,34.196651,0 132.539309,34.196634,0 132.539301,34.196617,0 132.539295,34.196601,0 132.539288,34.196584,0 132.539282,34.196566,0 132.539275,34.196549,0 132.539271,34.196531,0 132.539265,34.196513,0 132.539261,34.196496,0 132.539257,34.196478,0 132.539253,34.19646,0 132.53925,34.196443,0 132.539247,34.196425,0 132.539244,34.196407,0 132.539241,34.196389,0 132.539239,34.196371,0 132.539237,34.196353,0 132.539235,34.196335,0 132.539233,34.196317,0 132.53923,34.1963,0 132.539227,34.196282,0 132.539225,34.196264,0 132.539221,34.196246,0 132.539217,34.196229,0 132.539213,34.196211,0 132.539208,34.196193,0 132.539202,34.196175,0 132.539197,34.196158,0 132.539189,34.196141,0 132.539182,34.196124,0 132.539174,34.196108,0 132.539164,34.196092,0 132.539154,34.196075,0 132.539144,34.196059,0 132.539133,34.196044,0 132.53912,34.196029,0 132.539108,34.196015,0 132.539094,34.196001,0 132.539079,34.195987,0 132.539065,34.195974,0 132.53905,34.19596,0 132.539035,34.195947,0 132.53902,34.195935,0 132.539003,34.195922,0 132.538988,34.19591,0 132.538971,34.195899,0 132.538954,34.195887,0 132.538938,34.195875,0 132.538922,34.195864,0 132.538904,34.195852,0 132.538888,34.195841,0 132.538871,34.195829,0 132.538853,34.195818,0 132.538837,34.195808,0 132.53882,34.195796,0 132.538802,34.195785,0 132.538785,34.195774,0 132.538768,34.195763,0 132.538751,34.195752,0 132.538734,34.195741,0 132.538716,34.19573,0 132.538699,34.195719,0 132.538682,34.195709,0 132.538664,34.195697,0 132.538647,34.195686,0 132.538631,34.195675,0 132.538613,34.195664,0 132.538596,34.195654,0 132.538578,34.195642,0 132.538561,34.195631,0 132.538545,34.19562,0 132.538527,34.195608,0 132.53851,34.195598,0 132.538494,34.195586,0 132.538477,34.195574,0 132.538461,34.195563,0 132.538445,34.19555,0 132.538428,34.195538,0 132.538413,34.195525,0 132.538399,34.195512,0 132.538385,34.195498,0 132.538372,34.195483,0 132.53836,34.195468,0 132.53835,34.195453,0 132.538342,34.195436,0 132.538335,34.195418,0 132.538331,34.195401,0 132.538329,34.195383,0 132.538331,34.195365,0 132.538336,34.195348,0 132.538345,34.195331,0 132.538357,34.195316,0 132.538371,34.195303,0 132.538387,34.195291,0 132.538406,34.195282,0 132.538426,34.195275,0 132.538447,34.195269,0 132.538468,34.195265,0 132.538489,34.195261,0 132.538511,34.195261,0 132.538533,34.19526,0 132.538555,34.19526,0 132.538576,34.195261,0 132.538598,34.195261,0 132.53862,34.195263,0 132.53864,34.195265,0 132.538662,34.195267,0 132.538684,34.195269,0 132.538706,34.19527,0 132.538727,34.19527,0 132.538749,34.19527,0 132.538771,34.195269,0 132.538793,34.195266,0 132.538813,34.195261,0 132.538834,34.195255,0 132.538852,34.195246,0 132.538871,34.195236,0 132.538886,34.195224,0 132.5389,34.195209,0 132.538911,34.195194,0 132.538919,34.195177,0 132.538924,34.19516,0 132.538926,34.195142,0 132.538925,34.195124,0 132.538921,34.195106,0 132.538913,34.195089,0 132.538902,34.195073,0 132.53889,34.195059,0 132.538874,34.195046,0 132.538858,34.195035,0 132.538839,34.195025,0 132.538819,34.195018,0 132.538798,34.195013,0 132.538777,34.195008,0 132.538756,34.195005,0 132.538734,34.195004,0 132.538712,34.195004,0 132.53869,34.195004,0 132.538669,34.195005,0 132.538648,34.195006,0 132.538626,34.195009,0 132.538605,34.195012,0 132.538583,34.195015,0 132.538562,34.195018,0 132.53854,34.195022,0 132.53852,34.195026,0 132.538498,34.195032,0 132.538477,34.195037,0 132.538458,34.195043,0 132.538437,34.195051,0 132.538418,34.195058,0 132.538399,34.195067,0 132.538381,34.195077,0 132.538364,34.195088,0 132.538349,34.195101,0 132.538336,34.195115,0 132.538324,34.195131,0 132.538317,34.195148,0 132.53831,34.195165,0 132.538307,34.195183,0 132.538306,34.195201,0 132.538307,34.195219,0 132.538311,34.195236,0 132.538317,34.195253,0 132.538324,34.19527,0 132.538334,34.195287,0 132.538345,34.195302,0 132.538358,34.195316,0 132.538372,34.19533,0 132.538387,34.195343,0 132.538405,34.195354,0 132.538422,34.195364,0 132.538442,34.195373,0 132.538461,34.195381,0 132.538481,34.195389,0 132.538501,34.195395,0 132.538522,34.1954,0 132.538543,34.195405,0 132.538564,34.195409,0 132.538585,34.195413,0 132.538607,34.195416,0 132.538628,34.195418,0 132.538649,34.195421,0 132.538671,34.195423,0 132.538693,34.195424,0 132.538714,34.195425,0 132.538736,34.195426,0 132.538758,34.195426,0 132.53878,34.195425,0 132.538801,34.195423,0 132.538823,34.195421,0 132.538845,34.195417,0 132.538865,34.195414,0 132.538886,34.195408,0 132.538907,34.195403,0 132.538927,34.195396,0 132.538946,34.195388,0 132.538965,34.195379,0 132.538983,34.195368,0 132.539,34.195357,0 132.539016,34.195345,0 132.539032,34.195332,0 132.539046,34.195318,0 132.539059,34.195305,0 132.539071,34.195289,0 132.539083,34.195274,0 132.539092,34.195258,0 132.539101,34.195242,0 132.539109,34.195225,0 132.539115,34.195207,0 132.53912,34.195189,0 132.539124,34.195172,0 132.539126,34.195154,0 132.539127,34.195136,0 132.539127,34.195118,0 132.539125,34.1951,0 132.539122,34.195082,0 132.539117,34.195065,0 132.539112,34.195047,0 132.539104,34.195031,0 132.539096,34.195014,0 132.539086,34.194998,0 132.539074,34.194983,0 132.539062,34.194968,0 132.539048,34.194954,0 132.539033,34.194941,0 132.539017,34.194928,0 132.539,34.194917,0 132.538983,34.194906,0 132.538964,34.194896,0 132.538946,34.194888,0 132.538926,34.19488,0 132.538906,34.194874,0 132.538885,34.194868,0 132.538864,34.194862,0 132.538844,34.194859,0 132.538822,34.194855,0 132.5388,34.194852,0 132.538778,34.19485,0 132.538757,34.194849,0 132.538735,34.194848,0 132.538713,34.194847,0 132.538691,34.194847,0 132.53867,34.194847,0 132.538648,34.194847,0 132.538626,34.194847,0 132.538605,34.194848,0 132.538583,34.194849,0 132.538561,34.19485,0 132.53854,34.19485,0 132.538519,34.194851,0 132.538497,34.194853,0 132.538475,34.194854,0 132.538453,34.194855,0 132.538432,34.194856,0 132.53841,34.194858,0 132.538388,34.194859,0 132.538367,34.194859,0 132.538345,34.19486,0 132.538323,34.194862,0 132.538301,34.194863,0 132.53828,34.194864,0 132.538258,34.194866,0 132.538236,34.194867,0 132.538214,34.194868,0 132.538193,34.194869,0 132.538171,34.19487,0 132.538149,34.194871,0 132.538127,34.194873,0 132.538106,34.194874,0 132.538084,34.194875,0 132.538062,34.194877,0 132.538041,34.194878,0 132.53802,34.194878,0 132.537998,34.19488,0 132.537976,34.194881,0 132.537955,34.194882,0 132.537933,34.194884,0 132.537911,34.194885,0 132.537889,34.194886,0 132.537868,34.194887,0 132.537846,34.194888,0 132.537824,34.194889,0 132.537803,34.194891,0 132.537781,34.194892,0 132.537759,34.194893,0 132.537737,34.194895,0 132.537716,34.194896,0 132.537694,34.194896,0 132.537672,34.194898,0 132.53765,34.194899,0 132.537629,34.1949,0 132.537607,34.194902,0 132.537585,34.194903,0 132.537563,34.194904,0 132.537543,34.194905,0 132.537521,34.194906,0 132.537499,34.194907,0 132.537478,34.194909,0 132.537456,34.19491,0 132.537434,34.194911,0 132.537412,34.194913,0 132.537391,34.194914,0 132.537369,34.194914,0 132.537347,34.194916,0 132.537325,34.194917,0 132.537304,34.194918,0 132.537282,34.19492,0 132.53726,34.194921,0 132.537239,34.194922,0 132.537217,34.194923,0 132.537195,34.194924,0 132.537173,34.194925,0 132.537152,34.194927,0 132.53713,34.194928,0 132.537108,34.194929,0 132.537086,34.194931,0 132.537065,34.194932,0 132.537044,34.194932,0 132.537022,34.194934,0 132.537001,34.194935,0 132.536979,34.194936,0 132.536957,34.194938,0 132.536935,34.194939,0 132.536914,34.19494,0 132.536892,34.194942,0 132.53687,34.194942,0 132.536848,34.194943,0 132.536827,34.194945,0 132.536805,34.194946,0 132.536783,34.194947,0 132.536761,34.194949,0 132.53674,34.19495,0 132.536718,34.194951,0 132.536696,34.194952,0 132.536675,34.194954,0 132.536653,34.194955,0 132.536631,34.194957,0 132.53661,34.194959,0 132.536589,34.19496,0 132.536567,34.194963,0 132.536545,34.194965,0 132.536524,34.194969,0 132.536503,34.194971,0 132.536481,34.194975,0 132.53646,34.194979,0 132.536439,34.194984,0 132.536418,34.19499,0 132.536399,34.194996,0 132.536379,34.195005,0 132.536359,34.195013,0 132.536341,34.195023,0 132.536324,34.195033,0 132.536308,34.195046,0 132.536293,34.195059,0 132.53628,34.195073,0 132.536268,34.195088,0 132.536258,34.195105,0 132.53625,34.195121,0 132.536243,34.195138,0 132.536239,34.195156,0 132.536236,34.195173,0 132.536234,34.195191,0 132.536236,34.195209,0 132.536238,34.195227,0 132.536242,34.195245,0 132.536249,34.195262,0 132.536257,34.195279,0 132.536268,34.195295,0 132.536281,34.195309,0 132.536295,34.195323,0 132.536311,34.195335,0 132.536328,34.195346,0 132.536346,34.195355,0 132.536366,34.195363,0 132.536387,34.19537,0 132.536407,34.195374,0 132.536429,34.195377,0 132.536451,34.195379,0 132.536472,34.195378,0 132.536493,34.195375,0 132.536515,34.195371,0 132.536535,34.195365,0 132.536555,34.195358,0 132.536573,34.195348,0 132.536591,34.195338,0 132.536607,34.195325,0 132.536621,34.195312,0 132.536634,34.195298,0 132.536646,34.195282,0 132.536655,34.195266,0 132.536663,34.195249,0 132.536668,34.195232,0 132.53667,34.195214,0 132.536672,34.195196,0 132.536671,34.195178,0 132.536668,34.19516,0 132.536664,34.195142,0 132.536656,34.195125,0 132.536647,34.195109,0 132.536637,34.195093,0 132.536623,34.195079,0 132.536609,34.195066,0 132.536593,34.195054,0 132.536575,34.195043,0 132.536556,34.195034,0 132.536535,34.195028,0 132.536515,34.195023,0 132.536493,34.19502,0 132.536471,34.195018,0 132.53645,34.195018,0 132.536429,34.19502,0 132.536407,34.195024,0 132.536387,34.195029,0 132.536367,34.195036,0 132.536347,34.195045,0 132.53633,34.195056,0 132.536314,34.195068,0 132.5363,34.195081,0 132.536287,34.195096,0 132.536276,34.195111,0 132.536267,34.195128,0 132.536259,34.195145,0 132.536255,34.195162,0 132.536252,34.19518,0 132.536252,34.195198,0 132.536253,34.195216,0 132.536256,34.195234,0 132.536263,34.195252,0 132.53627,34.195268,0 132.536281,34.195284,0 132.536293,34.195298,0 132.536307,34.195313,0 132.536322,34.195325,0 132.53634,34.195336,0 132.536358,34.195346,0 132.536378,34.195354,0 132.536397,34.195361,0 132.536418,34.195367,0 132.536439,34.195371,0 132.53646,34.195374,0 132.536482,34.195377,0 132.536504,34.195379,0 132.536526,34.19538,0 132.536547,34.19538,0 132.536569,34.19538,0 132.536591,34.195379,0 132.536613,34.195377,0 132.536634,34.195375,0 132.536655,34.195372,0 132.536677,34.19537,0 132.536698,34.195365,0 132.536719,34.195361,0 132.536739,34.195353,0 132.536758,34.195345,0 132.536776,34.195334,0 132.536791,34.195322,0 132.536805,34.195308,0 132.536816,34.195292,0 132.536825,34.195276,0 132.536832,34.195259,0 132.536838,34.195242,0 132.536843,34.195225,0 132.536846,34.195206,0 132.536851,34.195188,0 132.536854,34.19517,0 132.536857,34.195153,0 132.53686,34.195135,0 132.536863,34.195117,0 132.536866,34.195099,0 132.536869,34.195081,0 132.536871,34.195064,0 132.536875,34.195046,0 132.536878,34.195028,0 132.53688,34.19501,0 132.536882,34.194992,0 132.536883,34.194974,0 132.536884,34.194956,0 132.536884,34.194938,0 132.536883,34.19492,0 132.536881,34.194902,0 132.536877,34.194885,0 132.536871,34.194868,0 132.536863,34.19485,0 132.536854,34.194834,0 132.536843,34.194818,0 132.536831,34.194804,0 132.536818,34.194788,0 132.536805,34.194775,0 132.536792,34.19476,0 132.536778,34.194746,0 132.536765,34.194732,0 132.536751,34.194718,0 132.536738,34.194704,0 132.536725,34.194689,0 132.536713,34.194674,0 132.536702,34.194659,0 132.53669,34.194643,0 132.53668,34.194628,0 132.53667,34.194612,0 132.53666,34.194595,0 132.536651,34.194579,0 132.536642,34.194563,0 132.536634,34.194546,0 132.536626,34.19453,0 132.536618,34.194512,0 132.536609,34.194495,0 132.536602,34.194479,0 132.536594,34.194462,0 132.536587,34.194446,0 132.536578,34.194429,0 132.53657,34.194412,0 132.536562,34.194395,0 132.536553,34.194378,0 132.536544,34.194362,0 132.536535,34.194346,0 132.536526,34.19433,0 132.536516,34.194313,0 132.536505,34.194298,0 132.536494,34.194283,0 132.536482,34.194267,0 132.536469,34.194253,0 132.536456,34.194238,0 132.536442,34.194225,0
  </coordinates></LineString></Placemark>
  <Placemark><name>スタート / ゴール</name><Point><coordinates>132.558498,34.245965,0</coordinates></Point></Placemark>
  <Placemark><name>呉駅</name><Point><coordinates>132.558498,34.245965,0</coordinates></Point></Placemark>
  <Placemark><name>国道31号</name><Point><coordinates>132.553405,34.247695,0</coordinates></Point></Placemark>
  <Placemark><name>てつのくじら館</name><Point><coordinates>132.554893,34.241767,0</coordinates></Point></Placemark>
  <Placemark><name>大和ミュージアム</name><Point><coordinates>132.556017,34.241718,0</coordinates></Point></Placemark>
  <Placemark><name>呉市役所</name><Point><coordinates>132.565611,34.248254,0</coordinates></Point></Placemark>
  <Placemark><name>蔵本通り</name><Point><coordinates>132.564466,34.247665,0</coordinates></Point></Placemark>
  <Placemark><name>呉本通り</name><Point><coordinates>132.568099,34.246512,0</coordinates></Point></Placemark>
  <Placemark><name>めがね橋</name><Point><coordinates>132.56313,34.24151,0</coordinates></Point></Placemark>
  <Placemark><name>入船山記念館</name><Point><coordinates>132.562835,34.241134,0</coordinates></Point></Placemark>
  <Placemark><name>宮原</name><Point><coordinates>132.560765,34.232866,0</coordinates></Point></Placemark>
  <Placemark><name>アレイからすこじま</name><Point><coordinates>132.548875,34.225194,0</coordinates></Point></Placemark>
  <Placemark><name>警固屋</name><Point><coordinates>132.544655,34.212903,0</coordinates></Point></Placemark>
  <Placemark><name>音戸大橋</name><Point><coordinates>132.537391,34.194914,0</coordinates></Point></Placemark>
  <Placemark><name>音戸 (ゴール)</name><Point><coordinates>132.535199,34.193654,0</coordinates></Point></Placemark>
</Document></kml>
